{
"type": "FeatureCollection",
"name": "AOI_hexes_1km",
"crs": { "type": "name", "properties": { "name": "urn:ogc:def:crs:EPSG::32719" } },
"features": [
{ "type": "Feature", "properties": { "hex_id": 0 }, "geometry": { "type": "Polygon", "coordinates": [ [ [ 412730.0, 8389246.025403782725334 ], [ 412980.0, 8388813.012701891362667 ], [ 412880.0, 8388639.807621134445071 ], [ 412880.0, 8388650.0 ], [ 412870.0, 8388650.0 ], [ 412870.0, 8388660.0 ], [ 412860.0, 8388660.0 ], [ 412860.0, 8388680.0 ], [ 412850.0, 8388680.0 ], [ 412850.0, 8388690.0 ], [ 412840.0, 8388690.0 ], [ 412840.0, 8388710.0 ], [ 412830.0, 8388710.0 ], [ 412830.0, 8388730.0 ], [ 412820.0, 8388730.0 ], [ 412820.0, 8388740.0 ], [ 412810.0, 8388740.0 ], [ 412810.0, 8388760.0 ], [ 412800.0, 8388760.0 ], [ 412800.0, 8388770.0 ], [ 412790.0, 8388770.0 ], [ 412790.0, 8388790.0 ], [ 412780.0, 8388790.0 ], [ 412780.0, 8388800.0 ], [ 412770.0, 8388800.0 ], [ 412770.0, 8388820.0 ], [ 412760.0, 8388820.0 ], [ 412760.0, 8388830.0 ], [ 412750.0, 8388830.0 ], [ 412750.0, 8388850.0 ], [ 412740.0, 8388850.0 ], [ 412740.0, 8388870.0 ], [ 412730.0, 8388870.0 ], [ 412730.0, 8388880.0 ], [ 412720.0, 8388880.0 ], [ 412720.0, 8388900.0 ], [ 412710.0, 8388900.0 ], [ 412710.0, 8388910.0 ], [ 412700.0, 8388910.0 ], [ 412700.0, 8388930.0 ], [ 412690.0, 8388930.0 ], [ 412690.0, 8388940.0 ], [ 412680.0, 8388940.0 ], [ 412680.0, 8388960.0 ], [ 412670.0, 8388960.0 ], [ 412670.0, 8388970.0 ], [ 412660.0, 8388970.0 ], [ 412660.0, 8388990.0 ], [ 412650.0, 8388990.0 ], [ 412650.0, 8389010.0 ], [ 412640.0, 8389010.0 ], [ 412640.0, 8389020.0 ], [ 412630.0, 8389020.0 ], [ 412630.0, 8389040.0 ], [ 412620.0, 8389040.0 ], [ 412620.0, 8389050.0 ], [ 412610.0, 8389050.0 ], [ 412610.0, 8389070.0 ], [ 412600.0, 8389070.0 ], [ 412600.0, 8389080.0 ], [ 412590.0, 8389080.0 ], [ 412590.0, 8389100.0 ], [ 412580.0, 8389100.0 ], [ 412580.0, 8389110.0 ], [ 412570.0, 8389110.0 ], [ 412570.0, 8389130.0 ], [ 412560.0, 8389130.0 ], [ 412560.0, 8389150.0 ], [ 412550.0, 8389150.0 ], [ 412550.0, 8389160.0 ], [ 412540.0, 8389160.0 ], [ 412540.0, 8389180.0 ], [ 412530.0, 8389180.0 ], [ 412530.0, 8389190.0 ], [ 412520.0, 8389190.0 ], [ 412520.0, 8389210.0 ], [ 412510.0, 8389210.0 ], [ 412510.0, 8389220.0 ], [ 412500.0, 8389220.0 ], [ 412500.0, 8389240.0 ], [ 412490.0, 8389240.0 ], [ 412490.0, 8389246.025403782725334 ], [ 412730.0, 8389246.025403782725334 ] ] ] } },
{ "type": "Feature", "properties": { "hex_id": 1 }, "geometry": { "type": "Polygon", "coordinates": [ [ [ 412980.0, 8388813.012701891362667 ], [ 413210.0, 8388813.012701891362667 ], [ 413210.0, 8388790.0 ], [ 413200.0, 8388790.0 ], [ 413200.0, 8388760.0 ], [ 413190.0, 8388760.0 ], [ 413190.0, 8388730.0 ], [ 413180.0, 8388730.0 ], [ 413180.0, 8388700.0 ], [ 413170.0, 8388700.0 ], [ 413170.0, 8388680.0 ], [ 413160.0, 8388680.0 ], [ 413160.0, 8388650.0 ], [ 413150.0, 8388650.0 ], [ 413150.0, 8388620.0 ], [ 413140.0, 8388620.0 ], [ 413140.0, 8388590.0 ], [ 413130.0, 8388590.0 ], [ 413130.0, 8388560.0 ], [ 413120.0, 8388560.0 ], [ 413120.0, 8388530.0 ], [ 413110.0, 8388530.0 ], [ 413110.0, 8388510.0 ], [ 413100.0, 8388510.0 ], [ 413100.0, 8388480.0 ], [ 413090.0, 8388480.0 ], [ 413090.0, 8388450.0 ], [ 413080.0, 8388450.0 ], [ 413080.0, 8388420.0 ], [ 413070.0, 8388420.0 ], [ 413070.0, 8388390.0 ], [ 413060.0, 8388390.0 ], [ 413060.0, 8388380.0 ], [ 413040.0, 8388380.0 ], [ 413040.0, 8388400.0 ], [ 413030.0, 8388400.0 ], [ 413030.0, 8388410.0 ], [ 413020.0, 8388410.0 ], [ 413020.0, 8388430.0 ], [ 413010.0, 8388430.0 ], [ 413010.0, 8388440.0 ], [ 413000.0, 8388440.0 ], [ 413000.0, 8388460.0 ], [ 412990.0, 8388460.0 ], [ 412990.0, 8388480.0 ], [ 412980.0, 8388480.0 ], [ 412980.0, 8388490.0 ], [ 412970.0, 8388490.0 ], [ 412970.0, 8388510.0 ], [ 412960.0, 8388510.0 ], [ 412960.0, 8388520.0 ], [ 412950.0, 8388520.0 ], [ 412950.0, 8388540.0 ], [ 412940.0, 8388540.0 ], [ 412940.0, 8388550.0 ], [ 412930.0, 8388550.0 ], [ 412930.0, 8388570.0 ], [ 412920.0, 8388570.0 ], [ 412920.0, 8388580.0 ], [ 412910.0, 8388580.0 ], [ 412910.0, 8388600.0 ], [ 412900.0, 8388600.0 ], [ 412900.0, 8388620.0 ], [ 412890.0, 8388620.0 ], [ 412890.0, 8388630.0 ], [ 412880.0, 8388630.0 ], [ 412880.0, 8388639.807621134445071 ], [ 412980.0, 8388813.012701891362667 ] ] ] } },
{ "type": "Feature", "properties": { "hex_id": 2 }, "geometry": { "type": "Polygon", "coordinates": [ [ [ 413730.0, 8389246.025403782725334 ], [ 414230.0, 8389246.025403782725334 ], [ 414480.0, 8388813.012701891362667 ], [ 414455.166604984435253, 8388770.0 ], [ 414450.0, 8388770.0 ], [ 414450.0, 8388780.0 ], [ 414430.0, 8388780.0 ], [ 414430.0, 8388790.0 ], [ 414400.0, 8388790.0 ], [ 414400.0, 8388800.0 ], [ 414380.0, 8388800.0 ], [ 414380.0, 8388810.0 ], [ 414350.0, 8388810.0 ], [ 414350.0, 8388820.0 ], [ 414330.0, 8388820.0 ], [ 414330.0, 8388830.0 ], [ 414310.0, 8388830.0 ], [ 414310.0, 8388840.0 ], [ 414280.0, 8388840.0 ], [ 414280.0, 8388850.0 ], [ 414260.0, 8388850.0 ], [ 414260.0, 8388860.0 ], [ 414230.0, 8388860.0 ], [ 414230.0, 8388870.0 ], [ 414210.0, 8388870.0 ], [ 414210.0, 8388880.0 ], [ 414190.0, 8388880.0 ], [ 414190.0, 8388890.0 ], [ 414160.0, 8388890.0 ], [ 414160.0, 8388900.0 ], [ 414140.0, 8388900.0 ], [ 414140.0, 8388910.0 ], [ 414110.0, 8388910.0 ], [ 414110.0, 8388920.0 ], [ 414090.0, 8388920.0 ], [ 414090.0, 8388930.0 ], [ 414070.0, 8388930.0 ], [ 414070.0, 8388940.0 ], [ 414040.0, 8388940.0 ], [ 414040.0, 8388950.0 ], [ 414020.0, 8388950.0 ], [ 414020.0, 8388960.0 ], [ 413990.0, 8388960.0 ], [ 413990.0, 8388970.0 ], [ 413970.0, 8388970.0 ], [ 413970.0, 8388980.0 ], [ 413950.0, 8388980.0 ], [ 413950.0, 8388990.0 ], [ 413920.0, 8388990.0 ], [ 413920.0, 8389000.0 ], [ 413900.0, 8389000.0 ], [ 413900.0, 8389010.0 ], [ 413880.0, 8389010.0 ], [ 413880.0, 8389020.0 ], [ 413850.0, 8389020.0 ], [ 413850.0, 8389030.0 ], [ 413830.0, 8389030.0 ], [ 413830.0, 8389040.0 ], [ 413800.0, 8389040.0 ], [ 413800.0, 8389050.0 ], [ 413780.0, 8389050.0 ], [ 413780.0, 8389060.0 ], [ 413760.0, 8389060.0 ], [ 413760.0, 8389070.0 ], [ 413730.0, 8389070.0 ], [ 413730.0, 8389080.0 ], [ 413710.0, 8389080.0 ], [ 413710.0, 8389090.0 ], [ 413680.0, 8389090.0 ], [ 413680.0, 8389100.0 ], [ 413660.0, 8389100.0 ], [ 413660.0, 8389110.0 ], [ 413651.465696509287227, 8389110.0 ], [ 413730.0, 8389246.025403782725334 ] ] ] } },
{ "type": "Feature", "properties": { "hex_id": 3 }, "geometry": { "type": "Polygon", "coordinates": [ [ [ 414480.0, 8388813.012701891362667 ], [ 414980.0, 8388813.012701891362667 ], [ 415097.209438086138107, 8388610.0 ], [ 415090.0, 8388610.0 ], [ 415090.0, 8388570.0 ], [ 415080.0, 8388570.0 ], [ 415080.0, 8388530.0 ], [ 415070.0, 8388530.0 ], [ 415070.0, 8388520.0 ], [ 415050.0, 8388520.0 ], [ 415050.0, 8388530.0 ], [ 415030.0, 8388530.0 ], [ 415030.0, 8388540.0 ], [ 415000.0, 8388540.0 ], [ 415000.0, 8388550.0 ], [ 414980.0, 8388550.0 ], [ 414980.0, 8388560.0 ], [ 414950.0, 8388560.0 ], [ 414950.0, 8388570.0 ], [ 414930.0, 8388570.0 ], [ 414930.0, 8388580.0 ], [ 414910.0, 8388580.0 ], [ 414910.0, 8388590.0 ], [ 414880.0, 8388590.0 ], [ 414880.0, 8388600.0 ], [ 414860.0, 8388600.0 ], [ 414860.0, 8388610.0 ], [ 414830.0, 8388610.0 ], [ 414830.0, 8388620.0 ], [ 414810.0, 8388620.0 ], [ 414810.0, 8388630.0 ], [ 414790.0, 8388630.0 ], [ 414790.0, 8388640.0 ], [ 414760.0, 8388640.0 ], [ 414760.0, 8388650.0 ], [ 414740.0, 8388650.0 ], [ 414740.0, 8388660.0 ], [ 414710.0, 8388660.0 ], [ 414710.0, 8388670.0 ], [ 414690.0, 8388670.0 ], [ 414690.0, 8388680.0 ], [ 414670.0, 8388680.0 ], [ 414670.0, 8388690.0 ], [ 414640.0, 8388690.0 ], [ 414640.0, 8388700.0 ], [ 414620.0, 8388700.0 ], [ 414620.0, 8388710.0 ], [ 414590.0, 8388710.0 ], [ 414590.0, 8388720.0 ], [ 414570.0, 8388720.0 ], [ 414570.0, 8388730.0 ], [ 414550.0, 8388730.0 ], [ 414550.0, 8388740.0 ], [ 414520.0, 8388740.0 ], [ 414520.0, 8388750.0 ], [ 414500.0, 8388750.0 ], [ 414500.0, 8388760.0 ], [ 414470.0, 8388760.0 ], [ 414470.0, 8388770.0 ], [ 414455.166604984377045, 8388770.0 ], [ 414480.0, 8388813.012701891362667 ] ], [ [ 414980.0, 8388680.0 ], [ 414940.0, 8388680.0 ], [ 414940.0, 8388660.0 ], [ 414980.0, 8388660.0 ], [ 414980.0, 8388680.0 ] ], [ [ 415040.0, 8388660.0 ], [ 415020.0, 8388660.0 ], [ 415020.0, 8388640.0 ], [ 415040.0, 8388640.0 ], [ 415040.0, 8388660.0 ] ], [ [ 415060.0, 8388560.0 ], [ 415040.0, 8388560.0 ], [ 415040.0, 8388540.0 ], [ 415060.0, 8388540.0 ], [ 415060.0, 8388560.0 ] ] ] } },
{ "type": "Feature", "properties": { "hex_id": 4 }, "geometry": { "type": "Polygon", "coordinates": [ [ [ 415230.0, 8389246.025403782725334 ], [ 415250.0, 8389246.025403782725334 ], [ 415250.0, 8389240.0 ], [ 415240.0, 8389240.0 ], [ 415240.0, 8389200.0 ], [ 415230.0, 8389200.0 ], [ 415230.0, 8389160.0 ], [ 415220.0, 8389160.0 ], [ 415220.0, 8389120.0 ], [ 415210.0, 8389120.0 ], [ 415210.0, 8389070.0 ], [ 415200.0, 8389070.0 ], [ 415200.0, 8389030.0 ], [ 415190.0, 8389030.0 ], [ 415190.0, 8388990.0 ], [ 415180.0, 8388990.0 ], [ 415180.0, 8388950.0 ], [ 415170.0, 8388950.0 ], [ 415170.0, 8388910.0 ], [ 415160.0, 8388910.0 ], [ 415160.0, 8388860.0 ], [ 415150.0, 8388860.0 ], [ 415150.0, 8388820.0 ], [ 415140.0, 8388820.0 ], [ 415140.0, 8388780.0 ], [ 415130.0, 8388780.0 ], [ 415130.0, 8388740.0 ], [ 415120.0, 8388740.0 ], [ 415120.0, 8388700.0 ], [ 415110.0, 8388700.0 ], [ 415110.0, 8388650.0 ], [ 415100.0, 8388650.0 ], [ 415100.0, 8388610.0 ], [ 415097.209438085847069, 8388610.0 ], [ 414980.0, 8388813.012701891362667 ], [ 415230.0, 8389246.025403782725334 ] ], [ [ 415100.0, 8388700.0 ], [ 415080.0, 8388700.0 ], [ 415080.0, 8388680.0 ], [ 415100.0, 8388680.0 ], [ 415100.0, 8388700.0 ] ] ] } },
{ "type": "Feature", "properties": { "hex_id": 5 }, "geometry": { "type": "Polygon", "coordinates": [ [ [ 412230.0, 8390112.050807567313313 ], [ 412730.0, 8390112.050807567313313 ], [ 412980.0, 8389679.038105675950646 ], [ 412730.0, 8389246.025403784587979 ], [ 412490.0, 8389246.025403784587979 ], [ 412490.0, 8389260.0 ], [ 412480.0, 8389260.0 ], [ 412480.0, 8389270.0 ], [ 412470.0, 8389270.0 ], [ 412470.0, 8389290.0 ], [ 412460.0, 8389290.0 ], [ 412460.0, 8389300.0 ], [ 412450.0, 8389300.0 ], [ 412450.0, 8389320.0 ], [ 412440.0, 8389320.0 ], [ 412440.0, 8389340.0 ], [ 412430.0, 8389340.0 ], [ 412430.0, 8389350.0 ], [ 412420.0, 8389350.0 ], [ 412420.0, 8389370.0 ], [ 412410.0, 8389370.0 ], [ 412410.0, 8389380.0 ], [ 412400.0, 8389380.0 ], [ 412400.0, 8389400.0 ], [ 412390.0, 8389400.0 ], [ 412390.0, 8389410.0 ], [ 412380.0, 8389410.0 ], [ 412380.0, 8389430.0 ], [ 412370.0, 8389430.0 ], [ 412370.0, 8389450.0 ], [ 412360.0, 8389450.0 ], [ 412360.0, 8389460.0 ], [ 412350.0, 8389460.0 ], [ 412350.0, 8389480.0 ], [ 412340.0, 8389480.0 ], [ 412340.0, 8389490.0 ], [ 412330.0, 8389490.0 ], [ 412330.0, 8389510.0 ], [ 412320.0, 8389510.0 ], [ 412320.0, 8389530.0 ], [ 412310.0, 8389530.0 ], [ 412310.0, 8389540.0 ], [ 412300.0, 8389540.0 ], [ 412300.0, 8389560.0 ], [ 412290.0, 8389560.0 ], [ 412290.0, 8389570.0 ], [ 412280.0, 8389570.0 ], [ 412280.0, 8389590.0 ], [ 412270.0, 8389590.0 ], [ 412270.0, 8389610.0 ], [ 412260.0, 8389610.0 ], [ 412260.0, 8389620.0 ], [ 412250.0, 8389620.0 ], [ 412250.0, 8389640.0 ], [ 412240.0, 8389640.0 ], [ 412240.0, 8389650.0 ], [ 412230.0, 8389650.0 ], [ 412230.0, 8389670.0 ], [ 412220.0, 8389670.0 ], [ 412220.0, 8389680.0 ], [ 412210.0, 8389680.0 ], [ 412210.0, 8389700.0 ], [ 412200.0, 8389700.0 ], [ 412200.0, 8389720.0 ], [ 412190.0, 8389720.0 ], [ 412190.0, 8389730.0 ], [ 412180.0, 8389730.0 ], [ 412180.0, 8389750.0 ], [ 412170.0, 8389750.0 ], [ 412170.0, 8389760.0 ], [ 412160.0, 8389760.0 ], [ 412160.0, 8389780.0 ], [ 412150.0, 8389780.0 ], [ 412150.0, 8389800.0 ], [ 412140.0, 8389800.0 ], [ 412140.0, 8389810.0 ], [ 412130.0, 8389810.0 ], [ 412130.0, 8389830.0 ], [ 412120.0, 8389830.0 ], [ 412120.0, 8389840.0 ], [ 412110.0, 8389840.0 ], [ 412110.0, 8389860.0 ], [ 412100.0, 8389860.0 ], [ 412100.0, 8389870.0 ], [ 412090.251901093171909, 8389870.0 ], [ 412230.0, 8390112.050807567313313 ] ] ] } },
{ "type": "Feature", "properties": { "hex_id": 6 }, "geometry": { "type": "Polygon", "coordinates": [ [ [ 412980.0, 8389679.038105675950646 ], [ 413480.0, 8389679.038105675950646 ], [ 413730.0, 8389246.025403784587979 ], [ 413651.465696508181281, 8389110.0 ], [ 413640.0, 8389110.0 ], [ 413640.0, 8389120.0 ], [ 413610.0, 8389120.0 ], [ 413610.0, 8389130.0 ], [ 413590.0, 8389130.0 ], [ 413590.0, 8389140.0 ], [ 413560.0, 8389140.0 ], [ 413560.0, 8389150.0 ], [ 413540.0, 8389150.0 ], [ 413540.0, 8389160.0 ], [ 413520.0, 8389160.0 ], [ 413520.0, 8389170.0 ], [ 413490.0, 8389170.0 ], [ 413490.0, 8389180.0 ], [ 413470.0, 8389180.0 ], [ 413470.0, 8389190.0 ], [ 413440.0, 8389190.0 ], [ 413440.0, 8389180.0 ], [ 413430.0, 8389180.0 ], [ 413430.0, 8389170.0 ], [ 413420.0, 8389170.0 ], [ 413420.0, 8389150.0 ], [ 413410.0, 8389150.0 ], [ 413410.0, 8389140.0 ], [ 413400.0, 8389140.0 ], [ 413400.0, 8389120.0 ], [ 413390.0, 8389120.0 ], [ 413390.0, 8389100.0 ], [ 413380.0, 8389100.0 ], [ 413380.0, 8389090.0 ], [ 413370.0, 8389090.0 ], [ 413370.0, 8389070.0 ], [ 413360.0, 8389070.0 ], [ 413360.0, 8389060.0 ], [ 413350.0, 8389060.0 ], [ 413350.0, 8389040.0 ], [ 413340.0, 8389040.0 ], [ 413340.0, 8389030.0 ], [ 413330.0, 8389030.0 ], [ 413330.0, 8389010.0 ], [ 413320.0, 8389010.0 ], [ 413320.0, 8389000.0 ], [ 413310.0, 8389000.0 ], [ 413310.0, 8388980.0 ], [ 413300.0, 8388980.0 ], [ 413300.0, 8388960.0 ], [ 413290.0, 8388960.0 ], [ 413290.0, 8388950.0 ], [ 413280.0, 8388950.0 ], [ 413280.0, 8388930.0 ], [ 413270.0, 8388930.0 ], [ 413270.0, 8388920.0 ], [ 413260.0, 8388920.0 ], [ 413260.0, 8388900.0 ], [ 413250.0, 8388900.0 ], [ 413250.0, 8388890.0 ], [ 413240.0, 8388890.0 ], [ 413240.0, 8388870.0 ], [ 413230.0, 8388870.0 ], [ 413230.0, 8388850.0 ], [ 413220.0, 8388850.0 ], [ 413220.0, 8388820.0 ], [ 413210.0, 8388820.0 ], [ 413210.0, 8388813.012701893225312 ], [ 412980.0, 8388813.012701893225312 ], [ 412730.0, 8389246.025403784587979 ], [ 412980.0, 8389679.038105675950646 ] ] ] } },
{ "type": "Feature", "properties": { "hex_id": 7 }, "geometry": { "type": "Polygon", "coordinates": [ [ [ 413730.0, 8390112.050807567313313 ], [ 414230.0, 8390112.050807567313313 ], [ 414480.0, 8389679.038105675950646 ], [ 414230.0, 8389246.025403784587979 ], [ 413730.0, 8389246.025403784587979 ], [ 413480.0, 8389679.038105675950646 ], [ 413730.0, 8390112.050807567313313 ] ] ] } },
{ "type": "Feature", "properties": { "hex_id": 8 }, "geometry": { "type": "Polygon", "coordinates": [ [ [ 414480.0, 8389679.038105675950646 ], [ 414980.0, 8389679.038105675950646 ], [ 415230.0, 8389246.025403784587979 ], [ 414980.0, 8388813.012701893225312 ], [ 414480.0, 8388813.012701893225312 ], [ 414230.0, 8389246.025403784587979 ], [ 414480.0, 8389679.038105675950646 ] ] ] } },
{ "type": "Feature", "properties": { "hex_id": 9 }, "geometry": { "type": "Polygon", "coordinates": [ [ [ 415230.0, 8390112.050807567313313 ], [ 415730.0, 8390112.050807567313313 ], [ 415780.0, 8390025.448267189785838 ], [ 415780.0, 8389970.0 ], [ 415770.0, 8389970.0 ], [ 415770.0, 8389830.0 ], [ 415740.0, 8389830.0 ], [ 415740.0, 8389820.0 ], [ 415690.0, 8389820.0 ], [ 415690.0, 8389810.0 ], [ 415650.0, 8389810.0 ], [ 415650.0, 8389800.0 ], [ 415600.0, 8389800.0 ], [ 415600.0, 8389790.0 ], [ 415560.0, 8389790.0 ], [ 415560.0, 8389780.0 ], [ 415510.0, 8389780.0 ], [ 415510.0, 8389770.0 ], [ 415470.0, 8389770.0 ], [ 415470.0, 8389760.0 ], [ 415420.0, 8389760.0 ], [ 415420.0, 8389750.0 ], [ 415380.0, 8389750.0 ], [ 415380.0, 8389740.0 ], [ 415360.0, 8389740.0 ], [ 415360.0, 8389710.0 ], [ 415350.0, 8389710.0 ], [ 415350.0, 8389660.0 ], [ 415340.0, 8389660.0 ], [ 415340.0, 8389620.0 ], [ 415330.0, 8389620.0 ], [ 415330.0, 8389580.0 ], [ 415320.0, 8389580.0 ], [ 415320.0, 8389540.0 ], [ 415310.0, 8389540.0 ], [ 415310.0, 8389500.0 ], [ 415300.0, 8389500.0 ], [ 415300.0, 8389450.0 ], [ 415290.0, 8389450.0 ], [ 415290.0, 8389410.0 ], [ 415280.0, 8389410.0 ], [ 415280.0, 8389370.0 ], [ 415270.0, 8389370.0 ], [ 415270.0, 8389330.0 ], [ 415260.0, 8389330.0 ], [ 415260.0, 8389290.0 ], [ 415250.0, 8389290.0 ], [ 415250.0, 8389246.025403784587979 ], [ 415230.0, 8389246.025403784587979 ], [ 414980.0, 8389679.038105675950646 ], [ 415230.0, 8390112.050807567313313 ] ] ] } },
{ "type": "Feature", "properties": { "hex_id": 10 }, "geometry": { "type": "Polygon", "coordinates": [ [ [ 412230.0, 8390112.050807569175959 ], [ 412090.251901092065964, 8389870.0 ], [ 412090.0, 8389870.0 ], [ 412090.0, 8389890.0 ], [ 412080.0, 8389890.0 ], [ 412080.0, 8389910.0 ], [ 412070.0, 8389910.0 ], [ 412070.0, 8389920.0 ], [ 412060.0, 8389920.0 ], [ 412060.0, 8389940.0 ], [ 412050.0, 8389940.0 ], [ 412050.0, 8389950.0 ], [ 412040.0, 8389950.0 ], [ 412040.0, 8389970.0 ], [ 412030.0, 8389970.0 ], [ 412030.0, 8389990.0 ], [ 412020.0, 8389990.0 ], [ 412020.0, 8390000.0 ], [ 412010.0, 8390000.0 ], [ 412010.0, 8390020.0 ], [ 412000.0, 8390020.0 ], [ 412000.0, 8390030.0 ], [ 411990.0, 8390030.0 ], [ 411990.0, 8390050.0 ], [ 411980.0, 8390050.0 ], [ 411980.0, 8390060.0 ], [ 411970.0, 8390060.0 ], [ 411970.0, 8390080.0 ], [ 411960.0, 8390080.0 ], [ 411960.0, 8390100.0 ], [ 411950.0, 8390100.0 ], [ 411950.0, 8390110.0 ], [ 411940.0, 8390110.0 ], [ 411940.0, 8390130.0 ], [ 411930.0, 8390130.0 ], [ 411930.0, 8390140.0 ], [ 411920.0, 8390140.0 ], [ 411920.0, 8390160.0 ], [ 411910.0, 8390160.0 ], [ 411910.0, 8390180.0 ], [ 411900.0, 8390180.0 ], [ 411900.0, 8390190.0 ], [ 411890.0, 8390190.0 ], [ 411890.0, 8390210.0 ], [ 411880.0, 8390210.0 ], [ 411880.0, 8390220.0 ], [ 411870.0, 8390220.0 ], [ 411870.0, 8390240.0 ], [ 411860.0, 8390240.0 ], [ 411860.0, 8390250.0 ], [ 411850.0, 8390250.0 ], [ 411850.0, 8390270.0 ], [ 411840.0, 8390270.0 ], [ 411840.0, 8390290.0 ], [ 411830.0, 8390290.0 ], [ 411830.0, 8390300.0 ], [ 411820.0, 8390300.0 ], [ 411820.0, 8390320.0 ], [ 411810.0, 8390320.0 ], [ 411810.0, 8390330.0 ], [ 411800.0, 8390330.0 ], [ 411800.0, 8390350.0 ], [ 411790.0, 8390350.0 ], [ 411790.0, 8390370.0 ], [ 411780.0, 8390370.0 ], [ 411780.0, 8390380.0 ], [ 411770.0, 8390380.0 ], [ 411770.0, 8390400.0 ], [ 411760.0, 8390400.0 ], [ 411760.0, 8390410.0 ], [ 411750.0, 8390410.0 ], [ 411750.0, 8390430.0 ], [ 411740.0, 8390430.0 ], [ 411740.0, 8390440.0 ], [ 411730.0, 8390440.0 ], [ 411730.0, 8390460.0 ], [ 411790.0, 8390460.0 ], [ 411790.0, 8390450.0 ], [ 411860.0, 8390450.0 ], [ 411860.0, 8390440.0 ], [ 411930.0, 8390440.0 ], [ 411930.0, 8390430.0 ], [ 412000.0, 8390430.0 ], [ 412000.0, 8390420.0 ], [ 412052.205450852983631, 8390420.0 ], [ 412230.0, 8390112.050807569175959 ] ] ] } },
{ "type": "Feature", "properties": { "hex_id": 11 }, "geometry": { "type": "Polygon", "coordinates": [ [ [ 412140.0, 8390822.191638670861721 ], [ 412140.0, 8390820.0 ], [ 412260.0, 8390820.0 ], [ 412260.0, 8390840.0 ], [ 412280.0, 8390840.0 ], [ 412280.0, 8390880.0 ], [ 412300.0, 8390880.0 ], [ 412300.0, 8390920.0 ], [ 412340.0, 8390920.0 ], [ 412340.0, 8390940.0 ], [ 412400.0, 8390940.0 ], [ 412400.0, 8390978.076211351901293 ], [ 412730.0, 8390978.076211351901293 ], [ 412980.0, 8390545.063509460538626 ], [ 412730.0, 8390112.050807569175959 ], [ 412230.0, 8390112.050807569175959 ], [ 412052.205450852983631, 8390420.0 ], [ 412070.0, 8390420.0 ], [ 412070.0, 8390410.0 ], [ 412140.0, 8390410.0 ], [ 412140.0, 8390400.0 ], [ 412210.0, 8390400.0 ], [ 412210.0, 8390390.0 ], [ 412280.0, 8390390.0 ], [ 412280.0, 8390380.0 ], [ 412350.0, 8390380.0 ], [ 412350.0, 8390370.0 ], [ 412410.0, 8390370.0 ], [ 412410.0, 8390380.0 ], [ 412400.0, 8390380.0 ], [ 412400.0, 8390390.0 ], [ 412390.0, 8390390.0 ], [ 412390.0, 8390410.0 ], [ 412380.0, 8390410.0 ], [ 412380.0, 8390430.0 ], [ 412370.0, 8390430.0 ], [ 412370.0, 8390440.0 ], [ 412360.0, 8390440.0 ], [ 412360.0, 8390460.0 ], [ 412350.0, 8390460.0 ], [ 412350.0, 8390470.0 ], [ 412340.0, 8390470.0 ], [ 412340.0, 8390490.0 ], [ 412330.0, 8390490.0 ], [ 412330.0, 8390500.0 ], [ 412320.0, 8390500.0 ], [ 412320.0, 8390520.0 ], [ 412310.0, 8390520.0 ], [ 412310.0, 8390540.0 ], [ 412300.0, 8390540.0 ], [ 412300.0, 8390550.0 ], [ 412290.0, 8390550.0 ], [ 412290.0, 8390570.0 ], [ 412280.0, 8390570.0 ], [ 412280.0, 8390580.0 ], [ 412270.0, 8390580.0 ], [ 412270.0, 8390600.0 ], [ 412260.0, 8390600.0 ], [ 412260.0, 8390610.0 ], [ 412250.0, 8390610.0 ], [ 412250.0, 8390630.0 ], [ 412240.0, 8390630.0 ], [ 412240.0, 8390650.0 ], [ 412230.0, 8390650.0 ], [ 412230.0, 8390660.0 ], [ 412220.0, 8390660.0 ], [ 412220.0, 8390680.0 ], [ 412210.0, 8390680.0 ], [ 412210.0, 8390690.0 ], [ 412200.0, 8390690.0 ], [ 412200.0, 8390710.0 ], [ 412190.0, 8390710.0 ], [ 412190.0, 8390720.0 ], [ 412180.0, 8390720.0 ], [ 412180.0, 8390740.0 ], [ 412170.0, 8390740.0 ], [ 412170.0, 8390760.0 ], [ 412160.0, 8390760.0 ], [ 412160.0, 8390770.0 ], [ 412150.0, 8390770.0 ], [ 412150.0, 8390790.0 ], [ 412140.0, 8390790.0 ], [ 412140.0, 8390800.0 ], [ 412130.0, 8390800.0 ], [ 412130.0, 8390804.871130594983697 ], [ 412140.0, 8390822.191638670861721 ] ] ] } },
{ "type": "Feature", "properties": { "hex_id": 12 }, "geometry": { "type": "Polygon", "coordinates": [ [ [ 412980.0, 8390545.063509460538626 ], [ 413480.0, 8390545.063509460538626 ], [ 413730.0, 8390112.050807569175959 ], [ 413480.0, 8389679.038105677813292 ], [ 412980.0, 8389679.038105677813292 ], [ 412730.0, 8390112.050807569175959 ], [ 412980.0, 8390545.063509460538626 ] ] ] } },
{ "type": "Feature", "properties": { "hex_id": 13 }, "geometry": { "type": "Polygon", "coordinates": [ [ [ 413730.0, 8390978.076211351901293 ], [ 413760.0, 8390978.076211351901293 ], [ 413760.0, 8390960.0 ], [ 413800.0, 8390960.0 ], [ 413800.0, 8390920.0 ], [ 413820.0, 8390920.0 ], [ 413820.0, 8390940.0 ], [ 413860.0, 8390940.0 ], [ 413860.0, 8390920.0 ], [ 413920.0, 8390920.0 ], [ 413920.0, 8390900.0 ], [ 413940.0, 8390900.0 ], [ 413940.0, 8390880.0 ], [ 413980.0, 8390880.0 ], [ 413980.0, 8390840.0 ], [ 414020.0, 8390840.0 ], [ 414020.0, 8390860.0 ], [ 414060.0, 8390860.0 ], [ 414060.0, 8390840.0 ], [ 414120.0, 8390840.0 ], [ 414120.0, 8390820.0 ], [ 414140.0, 8390820.0 ], [ 414140.0, 8390800.0 ], [ 414220.0, 8390800.0 ], [ 414220.0, 8390820.0 ], [ 414260.0, 8390820.0 ], [ 414260.0, 8390840.0 ], [ 414300.0, 8390840.0 ], [ 414300.0, 8390856.832654822617769 ], [ 414480.0, 8390545.063509460538626 ], [ 414230.0, 8390112.050807569175959 ], [ 413730.0, 8390112.050807569175959 ], [ 413480.0, 8390545.063509460538626 ], [ 413730.0, 8390978.076211351901293 ] ], [ [ 413940.0, 8390840.0 ], [ 413940.0, 8390820.0 ], [ 413980.0, 8390820.0 ], [ 413980.0, 8390840.0 ], [ 413940.0, 8390840.0 ] ], [ [ 413800.0, 8390840.0 ], [ 413800.0, 8390820.0 ], [ 413820.0, 8390820.0 ], [ 413820.0, 8390840.0 ], [ 413800.0, 8390840.0 ] ], [ [ 413780.0, 8390820.0 ], [ 413780.0, 8390800.0 ], [ 413800.0, 8390800.0 ], [ 413800.0, 8390820.0 ], [ 413780.0, 8390820.0 ] ], [ [ 413940.0, 8390780.0 ], [ 413900.0, 8390780.0 ], [ 413900.0, 8390760.0 ], [ 413940.0, 8390760.0 ], [ 413940.0, 8390780.0 ] ], [ [ 413960.0, 8390660.0 ], [ 413980.0, 8390660.0 ], [ 413980.0, 8390680.0 ], [ 414000.0, 8390680.0 ], [ 414000.0, 8390660.0 ], [ 414020.0, 8390660.0 ], [ 414020.0, 8390680.0 ], [ 414040.0, 8390680.0 ], [ 414040.0, 8390700.0 ], [ 414000.0, 8390700.0 ], [ 414000.0, 8390720.0 ], [ 413940.0, 8390720.0 ], [ 413940.0, 8390700.0 ], [ 413960.0, 8390700.0 ], [ 413960.0, 8390660.0 ] ], [ [ 414240.0, 8390600.0 ], [ 414260.0, 8390600.0 ], [ 414260.0, 8390620.0 ], [ 414360.0, 8390620.0 ], [ 414360.0, 8390660.0 ], [ 414340.0, 8390660.0 ], [ 414340.0, 8390680.0 ], [ 414300.0, 8390680.0 ], [ 414300.0, 8390700.0 ], [ 414220.0, 8390700.0 ], [ 414220.0, 8390660.0 ], [ 414240.0, 8390660.0 ], [ 414240.0, 8390600.0 ] ] ] } },
{ "type": "Feature", "properties": { "hex_id": 14 }, "geometry": { "type": "Polygon", "coordinates": [ [ [ 414480.0, 8390545.063509460538626 ], [ 414980.0, 8390545.063509460538626 ], [ 415098.393472388270311, 8390340.0 ], [ 415060.0, 8390340.0 ], [ 415060.0, 8390320.0 ], [ 415080.0, 8390320.0 ], [ 415080.0, 8390300.0 ], [ 415100.0, 8390300.0 ], [ 415100.0, 8390320.0 ], [ 415109.940477772033773, 8390320.0 ], [ 415230.0, 8390112.050807569175959 ], [ 414980.0, 8389679.038105677813292 ], [ 414480.0, 8389679.038105677813292 ], [ 414230.0, 8390112.050807569175959 ], [ 414480.0, 8390545.063509460538626 ] ], [ [ 414760.0, 8390000.0 ], [ 414780.0, 8390000.0 ], [ 414780.0, 8389960.0 ], [ 414800.0, 8389960.0 ], [ 414800.0, 8390020.0 ], [ 414820.0, 8390020.0 ], [ 414820.0, 8390000.0 ], [ 414920.0, 8390000.0 ], [ 414920.0, 8389940.0 ], [ 414940.0, 8389940.0 ], [ 414940.0, 8389920.0 ], [ 414980.0, 8389920.0 ], [ 414980.0, 8389980.0 ], [ 415000.0, 8389980.0 ], [ 415000.0, 8390100.0 ], [ 415040.0, 8390100.0 ], [ 415040.0, 8390120.0 ], [ 415000.0, 8390120.0 ], [ 415000.0, 8390140.0 ], [ 415020.0, 8390140.0 ], [ 415020.0, 8390180.0 ], [ 415000.0, 8390180.0 ], [ 415000.0, 8390220.0 ], [ 414980.0, 8390220.0 ], [ 414980.0, 8390260.0 ], [ 414880.0, 8390260.0 ], [ 414880.0, 8390240.0 ], [ 414900.0, 8390240.0 ], [ 414900.0, 8390180.0 ], [ 414880.0, 8390180.0 ], [ 414880.0, 8390160.0 ], [ 414860.0, 8390160.0 ], [ 414860.0, 8390140.0 ], [ 414780.0, 8390140.0 ], [ 414780.0, 8390120.0 ], [ 414740.0, 8390120.0 ], [ 414740.0, 8390080.0 ], [ 414720.0, 8390080.0 ], [ 414720.0, 8390120.0 ], [ 414620.0, 8390120.0 ], [ 414620.0, 8390100.0 ], [ 414600.0, 8390100.0 ], [ 414600.0, 8390040.0 ], [ 414500.0, 8390040.0 ], [ 414500.0, 8390000.0 ], [ 414540.0, 8390000.0 ], [ 414540.0, 8390020.0 ], [ 414640.0, 8390020.0 ], [ 414640.0, 8389980.0 ], [ 414620.0, 8389980.0 ], [ 414620.0, 8390000.0 ], [ 414580.0, 8390000.0 ], [ 414580.0, 8389940.0 ], [ 414640.0, 8389940.0 ], [ 414640.0, 8389960.0 ], [ 414700.0, 8389960.0 ], [ 414700.0, 8389940.0 ], [ 414740.0, 8389940.0 ], [ 414740.0, 8389980.0 ], [ 414760.0, 8389980.0 ], [ 414760.0, 8390000.0 ] ], [ [ 414780.0, 8390160.0 ], [ 414760.0, 8390160.0 ], [ 414760.0, 8390140.0 ], [ 414780.0, 8390140.0 ], [ 414780.0, 8390160.0 ] ], [ [ 414740.0, 8389920.0 ], [ 414760.0, 8389920.0 ], [ 414760.0, 8389900.0 ], [ 414780.0, 8389900.0 ], [ 414780.0, 8389940.0 ], [ 414740.0, 8389940.0 ], [ 414740.0, 8389920.0 ] ], [ [ 414780.0, 8390220.0 ], [ 414760.0, 8390220.0 ], [ 414760.0, 8390200.0 ], [ 414780.0, 8390200.0 ], [ 414780.0, 8390220.0 ] ], [ [ 415080.0, 8390080.0 ], [ 415120.0, 8390080.0 ], [ 415120.0, 8390120.0 ], [ 415100.0, 8390120.0 ], [ 415100.0, 8390100.0 ], [ 415080.0, 8390100.0 ], [ 415080.0, 8390080.0 ] ] ] } },
{ "type": "Feature", "properties": { "hex_id": 15 }, "geometry": { "type": "Polygon", "coordinates": [ [ [ 415230.0, 8390978.076211351901293 ], [ 415730.0, 8390978.076211351901293 ], [ 415910.0, 8390666.307065989822149 ], [ 415910.0, 8390650.0 ], [ 415900.0, 8390650.0 ], [ 415900.0, 8390630.0 ], [ 415890.0, 8390630.0 ], [ 415890.0, 8390620.0 ], [ 415880.0, 8390620.0 ], [ 415880.0, 8390600.0 ], [ 415870.0, 8390600.0 ], [ 415870.0, 8390580.0 ], [ 415860.0, 8390580.0 ], [ 415860.0, 8390560.0 ], [ 415850.0, 8390560.0 ], [ 415850.0, 8390540.0 ], [ 415840.0, 8390540.0 ], [ 415840.0, 8390520.0 ], [ 415830.0, 8390520.0 ], [ 415830.0, 8390500.0 ], [ 415820.0, 8390500.0 ], [ 415820.0, 8390480.0 ], [ 415810.0, 8390480.0 ], [ 415810.0, 8390460.0 ], [ 415800.0, 8390460.0 ], [ 415800.0, 8390370.0 ], [ 415790.0, 8390370.0 ], [ 415790.0, 8390215.973856022581458 ], [ 415730.0, 8390112.050807569175959 ], [ 415230.0, 8390112.050807569175959 ], [ 415109.940477772033773, 8390320.0 ], [ 415120.0, 8390320.0 ], [ 415120.0, 8390360.0 ], [ 415100.0, 8390360.0 ], [ 415100.0, 8390340.0 ], [ 415098.393472388270311, 8390340.0 ], [ 414980.0, 8390545.063509460538626 ], [ 415230.0, 8390978.076211351901293 ] ] ] } },
{ "type": "Feature", "properties": { "hex_id": 16 }, "geometry": { "type": "Polygon", "coordinates": [ [ [ 415790.0, 8390215.973856022581458 ], [ 415790.0, 8390170.0 ], [ 415780.0, 8390170.0 ], [ 415780.0, 8390025.448267191648483 ], [ 415730.0, 8390112.050807569175959 ], [ 415790.0, 8390215.973856022581458 ] ] ] } },
{ "type": "Feature", "properties": { "hex_id": 17 }, "geometry": { "type": "MultiPolygon", "coordinates": [ [ [ [ 411980.0, 8391411.088913245126605 ], [ 412113.419246269098949, 8391180.0 ], [ 412100.0, 8391180.0 ], [ 412100.0, 8391160.0 ], [ 412080.0, 8391160.0 ], [ 412080.0, 8391140.0 ], [ 412060.0, 8391140.0 ], [ 412060.0, 8391100.0 ], [ 412080.0, 8391100.0 ], [ 412080.0, 8391040.0 ], [ 412040.0, 8391040.0 ], [ 412040.0, 8391020.0 ], [ 412020.0, 8391020.0 ], [ 412020.0, 8390990.0 ], [ 412010.0, 8390990.0 ], [ 412010.0, 8391010.0 ], [ 412000.0, 8391010.0 ], [ 412000.0, 8391020.0 ], [ 411990.0, 8391020.0 ], [ 411990.0, 8391040.0 ], [ 411980.0, 8391040.0 ], [ 411980.0, 8391060.0 ], [ 411970.0, 8391060.0 ], [ 411970.0, 8391070.0 ], [ 411960.0, 8391070.0 ], [ 411960.0, 8391090.0 ], [ 411950.0, 8391090.0 ], [ 411950.0, 8391100.0 ], [ 411940.0, 8391100.0 ], [ 411940.0, 8391120.0 ], [ 411930.0, 8391120.0 ], [ 411930.0, 8391130.0 ], [ 411920.0, 8391130.0 ], [ 411920.0, 8391150.0 ], [ 411910.0, 8391150.0 ], [ 411910.0, 8391170.0 ], [ 411900.0, 8391170.0 ], [ 411900.0, 8391180.0 ], [ 411890.0, 8391180.0 ], [ 411890.0, 8391200.0 ], [ 411880.0, 8391200.0 ], [ 411880.0, 8391210.0 ], [ 411870.0, 8391210.0 ], [ 411870.0, 8391230.0 ], [ 411860.0, 8391230.0 ], [ 411860.0, 8391240.0 ], [ 411850.0, 8391240.0 ], [ 411850.0, 8391260.0 ], [ 411840.0, 8391260.0 ], [ 411840.0, 8391280.0 ], [ 411830.0, 8391280.0 ], [ 411830.0, 8391290.0 ], [ 411820.0, 8391290.0 ], [ 411820.0, 8391310.0 ], [ 411810.0, 8391310.0 ], [ 411810.0, 8391320.0 ], [ 411800.0, 8391320.0 ], [ 411800.0, 8391340.0 ], [ 411790.0, 8391340.0 ], [ 411790.0, 8391350.0 ], [ 411780.0, 8391350.0 ], [ 411780.0, 8391370.0 ], [ 411770.0, 8391370.0 ], [ 411770.0, 8391390.0 ], [ 411760.0, 8391390.0 ], [ 411760.0, 8391400.0 ], [ 411750.0, 8391400.0 ], [ 411750.0, 8391411.088913245126605 ], [ 411980.0, 8391411.088913245126605 ] ] ], [ [ [ 412130.0, 8390804.871130596846342 ], [ 412130.0, 8390820.0 ], [ 412120.0, 8390820.0 ], [ 412120.0, 8390830.0 ], [ 412110.0, 8390830.0 ], [ 412110.0, 8390850.0 ], [ 412100.0, 8390850.0 ], [ 412100.0, 8390860.0 ], [ 412120.0, 8390860.0 ], [ 412120.0, 8390840.0 ], [ 412140.0, 8390840.0 ], [ 412140.0, 8390822.191638672724366 ], [ 412130.0, 8390804.871130596846342 ] ] ], [ [ [ 412090.0, 8390880.0 ], [ 412080.0, 8390880.0 ], [ 412080.0, 8390900.0 ], [ 412100.0, 8390900.0 ], [ 412100.0, 8390870.0 ], [ 412090.0, 8390870.0 ], [ 412090.0, 8390880.0 ] ] ], [ [ [ 412050.0, 8390940.0 ], [ 412060.0, 8390940.0 ], [ 412060.0, 8390930.0 ], [ 412050.0, 8390930.0 ], [ 412050.0, 8390940.0 ] ] ] ] } },
{ "type": "Feature", "properties": { "hex_id": 18 }, "geometry": { "type": "MultiPolygon", "coordinates": [ [ [ [ 411985.144818336702883, 8391420.0 ], [ 412040.0, 8391420.0 ], [ 412040.0, 8391410.0 ], [ 412120.0, 8391410.0 ], [ 412120.0, 8391400.0 ], [ 412100.0, 8391400.0 ], [ 412100.0, 8391380.0 ], [ 412080.0, 8391380.0 ], [ 412080.0, 8391360.0 ], [ 412060.0, 8391360.0 ], [ 412060.0, 8391340.0 ], [ 412080.0, 8391340.0 ], [ 412080.0, 8391320.0 ], [ 412060.0, 8391320.0 ], [ 412060.0, 8391300.0 ], [ 412080.0, 8391300.0 ], [ 412080.0, 8391260.0 ], [ 412100.0, 8391260.0 ], [ 412100.0, 8391220.0 ], [ 412120.0, 8391220.0 ], [ 412120.0, 8391180.0 ], [ 412113.419246269098949, 8391180.0 ], [ 411980.0, 8391411.088913245126605 ], [ 411985.144818336702883, 8391420.0 ] ] ], [ [ [ 412730.0, 8390978.076211353763938 ], [ 412400.0, 8390978.076211353763938 ], [ 412400.0, 8391040.0 ], [ 412540.0, 8391040.0 ], [ 412540.0, 8391020.0 ], [ 412580.0, 8391020.0 ], [ 412580.0, 8391040.0 ], [ 412600.0, 8391040.0 ], [ 412600.0, 8391060.0 ], [ 412620.0, 8391060.0 ], [ 412620.0, 8391080.0 ], [ 412640.0, 8391080.0 ], [ 412640.0, 8391100.0 ], [ 412680.0, 8391100.0 ], [ 412680.0, 8391140.0 ], [ 412660.0, 8391140.0 ], [ 412660.0, 8391220.0 ], [ 412680.0, 8391220.0 ], [ 412680.0, 8391240.0 ], [ 412660.0, 8391240.0 ], [ 412660.0, 8391280.0 ], [ 412680.0, 8391280.0 ], [ 412680.0, 8391300.0 ], [ 412700.0, 8391300.0 ], [ 412700.0, 8391320.0 ], [ 412680.0, 8391320.0 ], [ 412680.0, 8391330.0 ], [ 412710.0, 8391330.0 ], [ 412710.0, 8391320.0 ], [ 412780.0, 8391320.0 ], [ 412780.0, 8391310.0 ], [ 412850.0, 8391310.0 ], [ 412850.0, 8391300.0 ], [ 412915.862786033831071, 8391300.0 ], [ 412730.0, 8390978.076211353763938 ] ], [ [ 412700.0, 8391240.0 ], [ 412700.0, 8391260.0 ], [ 412680.0, 8391260.0 ], [ 412680.0, 8391240.0 ], [ 412700.0, 8391240.0 ] ] ] ] } },
{ "type": "Feature", "properties": { "hex_id": 19 }, "geometry": { "type": "Polygon", "coordinates": [ [ [ 412915.862786033831071, 8391300.0 ], [ 412930.0, 8391300.0 ], [ 412930.0, 8391290.0 ], [ 413000.0, 8391290.0 ], [ 413000.0, 8391280.0 ], [ 413080.0, 8391280.0 ], [ 413080.0, 8391290.0 ], [ 413090.0, 8391290.0 ], [ 413090.0, 8391300.0 ], [ 413100.0, 8391300.0 ], [ 413100.0, 8391411.088913245126605 ], [ 413480.0, 8391411.088913245126605 ], [ 413480.0, 8391360.0 ], [ 413500.0, 8391360.0 ], [ 413500.0, 8391320.0 ], [ 413532.590208582347259, 8391320.0 ], [ 413540.0, 8391307.165864791721106 ], [ 413540.0, 8391300.0 ], [ 413544.137213966168929, 8391300.0 ], [ 413590.325235501455609, 8391220.0 ], [ 413580.0, 8391220.0 ], [ 413580.0, 8391200.0 ], [ 413601.872240885277279, 8391200.0 ], [ 413680.0, 8391064.678751731291413 ], [ 413680.0, 8391040.0 ], [ 413694.248283955792431, 8391040.0 ], [ 413730.0, 8390978.076211353763938 ], [ 413480.0, 8390545.063509462401271 ], [ 412980.0, 8390545.063509462401271 ], [ 412730.0, 8390978.076211353763938 ], [ 412915.862786033831071, 8391300.0 ] ] ] } },
{ "type": "Feature", "properties": { "hex_id": 20 }, "geometry": { "type": "MultiPolygon", "coordinates": [ [ [ [ 413740.0, 8391020.0 ], [ 413760.0, 8391020.0 ], [ 413760.0, 8390978.076211353763938 ], [ 413730.0, 8390978.076211353763938 ], [ 413694.248283955792431, 8391040.0 ], [ 413740.0, 8391040.0 ], [ 413740.0, 8391020.0 ] ] ], [ [ [ 413640.0, 8391180.0 ], [ 413640.0, 8391160.0 ], [ 413660.0, 8391160.0 ], [ 413660.0, 8391100.0 ], [ 413680.0, 8391100.0 ], [ 413680.0, 8391064.678751731291413 ], [ 413601.872240885277279, 8391200.0 ], [ 413620.0, 8391200.0 ], [ 413620.0, 8391180.0 ], [ 413640.0, 8391180.0 ] ] ], [ [ [ 413600.0, 8391280.0 ], [ 413600.0, 8391260.0 ], [ 413620.0, 8391260.0 ], [ 413620.0, 8391220.0 ], [ 413590.325235501455609, 8391220.0 ], [ 413544.137213966168929, 8391300.0 ], [ 413560.0, 8391300.0 ], [ 413560.0, 8391280.0 ], [ 413600.0, 8391280.0 ] ] ], [ [ [ 413532.590208582347259, 8391320.0 ], [ 413540.0, 8391320.0 ], [ 413540.0, 8391307.165864791721106 ], [ 413532.590208582347259, 8391320.0 ] ] ], [ [ [ 413500.0, 8391445.729929396882653 ], [ 413500.0, 8391440.0 ], [ 413496.691823720524553, 8391440.0 ], [ 413500.0, 8391445.729929396882653 ] ] ], [ [ [ 413520.0, 8391480.370945548638701 ], [ 413520.0, 8391480.0 ], [ 413519.785834488167893, 8391480.0 ], [ 413520.0, 8391480.370945548638701 ] ] ], [ [ [ 414000.0, 8391520.0 ], [ 414000.0, 8391500.0 ], [ 413980.0, 8391500.0 ], [ 413980.0, 8391480.0 ], [ 413960.0, 8391480.0 ], [ 413960.0, 8391460.0 ], [ 413920.0, 8391460.0 ], [ 413920.0, 8391440.0 ], [ 413900.0, 8391440.0 ], [ 413900.0, 8391480.0 ], [ 413880.0, 8391480.0 ], [ 413880.0, 8391460.0 ], [ 413860.0, 8391460.0 ], [ 413860.0, 8391500.0 ], [ 413880.0, 8391500.0 ], [ 413880.0, 8391520.0 ], [ 413900.0, 8391520.0 ], [ 413900.0, 8391530.0 ], [ 413910.0, 8391530.0 ], [ 413910.0, 8391540.0 ], [ 413930.0, 8391540.0 ], [ 413930.0, 8391560.0 ], [ 413940.0, 8391560.0 ], [ 413940.0, 8391570.0 ], [ 413950.0, 8391570.0 ], [ 413950.0, 8391580.0 ], [ 413960.0, 8391580.0 ], [ 413960.0, 8391590.0 ], [ 413990.0, 8391590.0 ], [ 413990.0, 8391600.0 ], [ 414000.0, 8391600.0 ], [ 414000.0, 8391610.0 ], [ 414010.0, 8391610.0 ], [ 414010.0, 8391620.0 ], [ 414020.0, 8391620.0 ], [ 414020.0, 8391600.0 ], [ 414040.0, 8391600.0 ], [ 414040.0, 8391560.0 ], [ 414020.0, 8391560.0 ], [ 414020.0, 8391520.0 ], [ 414000.0, 8391520.0 ] ] ], [ [ [ 413630.0, 8391590.0 ], [ 413640.0, 8391590.0 ], [ 413640.0, 8391580.0 ], [ 413600.0, 8391580.0 ], [ 413600.0, 8391560.0 ], [ 413580.0, 8391560.0 ], [ 413580.0, 8391540.0 ], [ 413560.0, 8391540.0 ], [ 413560.0, 8391520.0 ], [ 413542.879845255811233, 8391520.0 ], [ 413612.161877558683045, 8391640.0 ], [ 413620.0, 8391640.0 ], [ 413620.0, 8391610.0 ], [ 413630.0, 8391610.0 ], [ 413630.0, 8391590.0 ] ] ], [ [ [ 414360.0, 8391560.0 ], [ 414360.0, 8391520.0 ], [ 414340.0, 8391520.0 ], [ 414340.0, 8391480.0 ], [ 414320.0, 8391480.0 ], [ 414320.0, 8391560.0 ], [ 414340.0, 8391560.0 ], [ 414340.0, 8391600.0 ], [ 414320.0, 8391600.0 ], [ 414320.0, 8391620.0 ], [ 414220.0, 8391620.0 ], [ 414220.0, 8391680.0 ], [ 414250.0, 8391680.0 ], [ 414250.0, 8391690.0 ], [ 414260.0, 8391690.0 ], [ 414260.0, 8391700.0 ], [ 414310.0, 8391700.0 ], [ 414310.0, 8391690.0 ], [ 414318.970608981791884, 8391690.0 ], [ 414320.0, 8391688.2170424554497 ], [ 414320.0, 8391680.0 ], [ 414324.744111673673615, 8391680.0 ], [ 414394.026143976603635, 8391560.0 ], [ 414360.0, 8391560.0 ] ] ] ] } },
{ "type": "Feature", "properties": { "hex_id": 21 }, "geometry": { "type": "Polygon", "coordinates": [ [ [ 414800.0, 8391411.088913245126605 ], [ 414800.0, 8391400.0 ], [ 414820.0, 8391400.0 ], [ 414820.0, 8391411.088913245126605 ], [ 414980.0, 8391411.088913245126605 ], [ 415230.0, 8390978.076211353763938 ], [ 414980.0, 8390545.063509462401271 ], [ 414480.0, 8390545.063509462401271 ], [ 414300.0, 8390856.832654824480414 ], [ 414300.0, 8390860.0 ], [ 414320.0, 8390860.0 ], [ 414320.0, 8390880.0 ], [ 414360.0, 8390880.0 ], [ 414360.0, 8390920.0 ], [ 414380.0, 8390920.0 ], [ 414380.0, 8390960.0 ], [ 414400.0, 8390960.0 ], [ 414400.0, 8391040.0 ], [ 414420.0, 8391040.0 ], [ 414420.0, 8391080.0 ], [ 414440.0, 8391080.0 ], [ 414440.0, 8391100.0 ], [ 414460.0, 8391100.0 ], [ 414460.0, 8391120.0 ], [ 414480.0, 8391120.0 ], [ 414480.0, 8391160.0 ], [ 414500.0, 8391160.0 ], [ 414500.0, 8391340.0 ], [ 414520.0, 8391340.0 ], [ 414520.0, 8391400.0 ], [ 414540.0, 8391400.0 ], [ 414540.0, 8391411.088913245126605 ], [ 414800.0, 8391411.088913245126605 ] ], [ [ 414500.0, 8391140.0 ], [ 414520.0, 8391140.0 ], [ 414520.0, 8391160.0 ], [ 414500.0, 8391160.0 ], [ 414500.0, 8391140.0 ] ] ] } },
{ "type": "Feature", "properties": { "hex_id": 22 }, "geometry": { "type": "Polygon", "coordinates": [ [ [ 414985.144818336702883, 8391420.0 ], [ 415060.0, 8391420.0 ], [ 415060.0, 8391440.0 ], [ 415080.0, 8391440.0 ], [ 415080.0, 8391460.0 ], [ 415120.0, 8391460.0 ], [ 415120.0, 8391480.0 ], [ 415100.0, 8391480.0 ], [ 415100.0, 8391500.0 ], [ 415120.0, 8391500.0 ], [ 415120.0, 8391580.0 ], [ 415140.0, 8391580.0 ], [ 415140.0, 8391620.0 ], [ 415160.0, 8391620.0 ], [ 415160.0, 8391680.0 ], [ 415180.0, 8391680.0 ], [ 415180.0, 8391700.0 ], [ 415200.0, 8391700.0 ], [ 415200.0, 8391720.0 ], [ 415180.0, 8391720.0 ], [ 415180.0, 8391757.499074758961797 ], [ 415181.443909861554857, 8391760.0 ], [ 415200.0, 8391760.0 ], [ 415200.0, 8391780.0 ], [ 415220.0, 8391780.0 ], [ 415220.0, 8391820.0 ], [ 415240.0, 8391820.0 ], [ 415240.0, 8391844.101615136489272 ], [ 415420.0, 8391844.101615136489272 ], [ 415420.0, 8391840.0 ], [ 415430.0, 8391840.0 ], [ 415430.0, 8391830.0 ], [ 415450.0, 8391830.0 ], [ 415450.0, 8391820.0 ], [ 415460.0, 8391820.0 ], [ 415460.0, 8391810.0 ], [ 415480.0, 8391810.0 ], [ 415480.0, 8391800.0 ], [ 415490.0, 8391800.0 ], [ 415490.0, 8391790.0 ], [ 415510.0, 8391790.0 ], [ 415510.0, 8391780.0 ], [ 415520.0, 8391780.0 ], [ 415520.0, 8391770.0 ], [ 415530.0, 8391770.0 ], [ 415530.0, 8391760.0 ], [ 415540.0, 8391760.0 ], [ 415540.0, 8391750.0 ], [ 415550.0, 8391750.0 ], [ 415550.0, 8391740.0 ], [ 415560.0, 8391740.0 ], [ 415560.0, 8391730.0 ], [ 415570.0, 8391730.0 ], [ 415570.0, 8391720.0 ], [ 415580.0, 8391720.0 ], [ 415580.0, 8391710.0 ], [ 415600.0, 8391710.0 ], [ 415600.0, 8391700.0 ], [ 415620.0, 8391700.0 ], [ 415620.0, 8391690.0 ], [ 415640.0, 8391690.0 ], [ 415640.0, 8391680.0 ], [ 415660.0, 8391680.0 ], [ 415660.0, 8391670.0 ], [ 415680.0, 8391670.0 ], [ 415680.0, 8391660.0 ], [ 415700.0, 8391660.0 ], [ 415700.0, 8391650.0 ], [ 415720.0, 8391650.0 ], [ 415720.0, 8391640.0 ], [ 415740.0, 8391640.0 ], [ 415740.0, 8391630.0 ], [ 415760.0, 8391630.0 ], [ 415760.0, 8391640.0 ], [ 415780.0, 8391640.0 ], [ 415780.0, 8391650.0 ], [ 415810.0, 8391650.0 ], [ 415810.0, 8391660.0 ], [ 415830.0, 8391660.0 ], [ 415830.0, 8391670.0 ], [ 415830.517614365613554, 8391670.0 ], [ 415980.0, 8391411.088913245126605 ], [ 415730.0, 8390978.076211353763938 ], [ 415230.0, 8390978.076211353763938 ], [ 414980.0, 8391411.088913245126605 ], [ 414985.144818336702883, 8391420.0 ] ] ] } },
{ "type": "Feature", "properties": { "hex_id": 23 }, "geometry": { "type": "Polygon", "coordinates": [ [ [ 415980.0, 8391411.088913245126605 ], [ 416160.0, 8391411.088913245126605 ], [ 416160.0, 8391340.0 ], [ 416150.0, 8391340.0 ], [ 416150.0, 8391260.0 ], [ 416140.0, 8391260.0 ], [ 416140.0, 8391180.0 ], [ 416130.0, 8391180.0 ], [ 416130.0, 8391110.0 ], [ 416120.0, 8391110.0 ], [ 416120.0, 8391060.0 ], [ 416110.0, 8391060.0 ], [ 416110.0, 8391040.0 ], [ 416100.0, 8391040.0 ], [ 416100.0, 8391020.0 ], [ 416090.0, 8391020.0 ], [ 416090.0, 8391000.0 ], [ 416080.0, 8391000.0 ], [ 416080.0, 8390980.0 ], [ 416070.0, 8390980.0 ], [ 416070.0, 8390960.0 ], [ 416060.0, 8390960.0 ], [ 416060.0, 8390940.0 ], [ 416050.0, 8390940.0 ], [ 416050.0, 8390920.0 ], [ 416040.0, 8390920.0 ], [ 416040.0, 8390900.0 ], [ 416030.0, 8390900.0 ], [ 416030.0, 8390880.0 ], [ 416020.0, 8390880.0 ], [ 416020.0, 8390870.0 ], [ 416010.0, 8390870.0 ], [ 416010.0, 8390850.0 ], [ 416000.0, 8390850.0 ], [ 416000.0, 8390830.0 ], [ 415990.0, 8390830.0 ], [ 415990.0, 8390810.0 ], [ 415980.0, 8390810.0 ], [ 415980.0, 8390790.0 ], [ 415970.0, 8390790.0 ], [ 415970.0, 8390770.0 ], [ 415960.0, 8390770.0 ], [ 415960.0, 8390750.0 ], [ 415950.0, 8390750.0 ], [ 415950.0, 8390730.0 ], [ 415940.0, 8390730.0 ], [ 415940.0, 8390710.0 ], [ 415930.0, 8390710.0 ], [ 415930.0, 8390690.0 ], [ 415920.0, 8390690.0 ], [ 415920.0, 8390670.0 ], [ 415910.0, 8390670.0 ], [ 415910.0, 8390666.307065991684794 ], [ 415730.0, 8390978.076211353763938 ], [ 415980.0, 8391411.088913245126605 ] ] ] } },
{ "type": "Feature", "properties": { "hex_id": 24 }, "geometry": { "type": "Polygon", "coordinates": [ [ [ 411980.0, 8391411.08891324698925 ], [ 411750.0, 8391411.08891324698925 ], [ 411750.0, 8391420.0 ], [ 411740.0, 8391420.0 ], [ 411740.0, 8391430.0 ], [ 411730.0, 8391430.0 ], [ 411730.0, 8391460.0 ], [ 411750.0, 8391460.0 ], [ 411750.0, 8391450.0 ], [ 411820.0, 8391450.0 ], [ 411820.0, 8391440.0 ], [ 411890.0, 8391440.0 ], [ 411890.0, 8391430.0 ], [ 411970.0, 8391430.0 ], [ 411970.0, 8391420.0 ], [ 411985.144818335655145, 8391420.0 ], [ 411980.0, 8391411.08891324698925 ] ] ] } },
{ "type": "Feature", "properties": { "hex_id": 25 }, "geometry": { "type": "Polygon", "coordinates": [ [ [ 413542.879845254705288, 8391520.0 ], [ 413520.0, 8391520.0 ], [ 413520.0, 8391480.370945550501347 ], [ 413519.785834487061948, 8391480.0 ], [ 413500.0, 8391480.0 ], [ 413500.0, 8391445.729929398745298 ], [ 413496.691823719476815, 8391440.0 ], [ 413480.0, 8391440.0 ], [ 413480.0, 8391411.08891324698925 ], [ 413100.0, 8391411.08891324698925 ], [ 413100.0, 8391540.0 ], [ 413110.0, 8391540.0 ], [ 413110.0, 8391560.0 ], [ 413120.0, 8391560.0 ], [ 413120.0, 8391570.0 ], [ 413130.0, 8391570.0 ], [ 413130.0, 8391580.0 ], [ 413140.0, 8391580.0 ], [ 413140.0, 8391590.0 ], [ 413150.0, 8391590.0 ], [ 413150.0, 8391600.0 ], [ 413160.0, 8391600.0 ], [ 413160.0, 8391680.0 ], [ 413150.0, 8391680.0 ], [ 413150.0, 8391700.0 ], [ 413160.0, 8391700.0 ], [ 413160.0, 8391710.0 ], [ 413180.0, 8391710.0 ], [ 413180.0, 8391740.0 ], [ 413170.0, 8391740.0 ], [ 413170.0, 8391760.0 ], [ 413160.0, 8391760.0 ], [ 413160.0, 8391810.0 ], [ 413170.0, 8391810.0 ], [ 413170.0, 8391840.0 ], [ 413190.0, 8391840.0 ], [ 413190.0, 8391850.0 ], [ 413210.0, 8391850.0 ], [ 413210.0, 8391860.0 ], [ 413260.0, 8391860.0 ], [ 413260.0, 8391870.0 ], [ 413270.0, 8391870.0 ], [ 413270.0, 8391880.0 ], [ 413300.0, 8391880.0 ], [ 413300.0, 8391890.0 ], [ 413330.0, 8391890.0 ], [ 413330.0, 8391900.0 ], [ 413360.0, 8391900.0 ], [ 413360.0, 8391910.0 ], [ 413390.0, 8391910.0 ], [ 413390.0, 8391920.0 ], [ 413410.0, 8391920.0 ], [ 413410.0, 8391930.0 ], [ 413440.0, 8391930.0 ], [ 413440.0, 8391940.0 ], [ 413470.0, 8391940.0 ], [ 413470.0, 8391950.0 ], [ 413490.0, 8391950.0 ], [ 413490.0, 8391930.0 ], [ 413500.0, 8391930.0 ], [ 413500.0, 8391900.0 ], [ 413510.0, 8391900.0 ], [ 413510.0, 8391880.0 ], [ 413520.0, 8391880.0 ], [ 413520.0, 8391850.0 ], [ 413530.0, 8391850.0 ], [ 413530.0, 8391830.0 ], [ 413540.0, 8391830.0 ], [ 413540.0, 8391800.0 ], [ 413550.0, 8391800.0 ], [ 413550.0, 8391780.0 ], [ 413560.0, 8391780.0 ], [ 413560.0, 8391760.0 ], [ 413570.0, 8391760.0 ], [ 413570.0, 8391730.0 ], [ 413580.0, 8391730.0 ], [ 413580.0, 8391710.0 ], [ 413590.0, 8391710.0 ], [ 413590.0, 8391680.0 ], [ 413600.0, 8391680.0 ], [ 413600.0, 8391660.0 ], [ 413610.0, 8391660.0 ], [ 413610.0, 8391640.0 ], [ 413612.1618775575771, 8391640.0 ], [ 413542.879845254705288, 8391520.0 ] ] ] } },
{ "type": "Feature", "properties": { "hex_id": 26 }, "geometry": { "type": "MultiPolygon", "coordinates": [ [ [ [ 415180.0, 8391757.499074760824442 ], [ 415180.0, 8391760.0 ], [ 415181.443909860507119, 8391760.0 ], [ 415180.0, 8391757.499074760824442 ] ] ], [ [ [ 414980.0, 8391411.08891324698925 ], [ 414820.0, 8391411.08891324698925 ], [ 414820.0, 8391420.0 ], [ 414860.0, 8391420.0 ], [ 414860.0, 8391440.0 ], [ 414920.0, 8391440.0 ], [ 414920.0, 8391460.0 ], [ 414960.0, 8391460.0 ], [ 414960.0, 8391420.0 ], [ 414985.144818335655145, 8391420.0 ], [ 414980.0, 8391411.08891324698925 ] ] ], [ [ [ 414540.0, 8391411.08891324698925 ], [ 414540.0, 8391420.0 ], [ 414560.0, 8391420.0 ], [ 414560.0, 8391440.0 ], [ 414580.0, 8391440.0 ], [ 414580.0, 8391420.0 ], [ 414680.0, 8391420.0 ], [ 414680.0, 8391460.0 ], [ 414700.0, 8391460.0 ], [ 414700.0, 8391480.0 ], [ 414760.0, 8391480.0 ], [ 414760.0, 8391460.0 ], [ 414780.0, 8391460.0 ], [ 414780.0, 8391440.0 ], [ 414800.0, 8391440.0 ], [ 414800.0, 8391411.08891324698925 ], [ 414540.0, 8391411.08891324698925 ] ] ], [ [ [ 414324.74411167477956, 8391680.0 ], [ 414340.0, 8391680.0 ], [ 414340.0, 8391670.0 ], [ 414350.0, 8391670.0 ], [ 414350.0, 8391660.0 ], [ 414370.0, 8391660.0 ], [ 414370.0, 8391650.0 ], [ 414400.0, 8391650.0 ], [ 414400.0, 8391640.0 ], [ 414430.0, 8391640.0 ], [ 414430.0, 8391650.0 ], [ 414460.0, 8391650.0 ], [ 414460.0, 8391660.0 ], [ 414480.0, 8391660.0 ], [ 414480.0, 8391640.0 ], [ 414460.0, 8391640.0 ], [ 414460.0, 8391620.0 ], [ 414440.0, 8391620.0 ], [ 414440.0, 8391600.0 ], [ 414420.0, 8391600.0 ], [ 414420.0, 8391580.0 ], [ 414400.0, 8391580.0 ], [ 414400.0, 8391560.0 ], [ 414394.026143977651373, 8391560.0 ], [ 414324.74411167477956, 8391680.0 ] ] ], [ [ [ 414318.970608982839622, 8391690.0 ], [ 414320.0, 8391690.0 ], [ 414320.0, 8391688.217042457312346 ], [ 414318.970608982839622, 8391690.0 ] ] ] ] } },
{ "type": "Feature", "properties": { "hex_id": 27 }, "geometry": { "type": "Polygon", "coordinates": [ [ [ 415240.0, 8391844.101615138351917 ], [ 415240.0, 8391880.0 ], [ 415260.0, 8391880.0 ], [ 415260.0, 8391920.0 ], [ 415240.0, 8391920.0 ], [ 415240.0, 8391960.0 ], [ 415250.0, 8391960.0 ], [ 415250.0, 8391950.0 ], [ 415260.0, 8391950.0 ], [ 415260.0, 8391940.0 ], [ 415280.0, 8391940.0 ], [ 415280.0, 8391930.0 ], [ 415290.0, 8391930.0 ], [ 415290.0, 8391920.0 ], [ 415310.0, 8391920.0 ], [ 415310.0, 8391910.0 ], [ 415320.0, 8391910.0 ], [ 415320.0, 8391900.0 ], [ 415340.0, 8391900.0 ], [ 415340.0, 8391890.0 ], [ 415350.0, 8391890.0 ], [ 415350.0, 8391880.0 ], [ 415370.0, 8391880.0 ], [ 415370.0, 8391870.0 ], [ 415390.0, 8391870.0 ], [ 415390.0, 8391860.0 ], [ 415400.0, 8391860.0 ], [ 415400.0, 8391850.0 ], [ 415420.0, 8391850.0 ], [ 415420.0, 8391844.101615138351917 ], [ 415240.0, 8391844.101615138351917 ] ] ] } },
{ "type": "Feature", "properties": { "hex_id": 28 }, "geometry": { "type": "Polygon", "coordinates": [ [ [ 415980.0, 8391411.08891324698925 ], [ 415830.517614366661292, 8391670.0 ], [ 415850.0, 8391670.0 ], [ 415850.0, 8391680.0 ], [ 415880.0, 8391680.0 ], [ 415880.0, 8391690.0 ], [ 415900.0, 8391690.0 ], [ 415900.0, 8391700.0 ], [ 415920.0, 8391700.0 ], [ 415920.0, 8391710.0 ], [ 415950.0, 8391710.0 ], [ 415950.0, 8391720.0 ], [ 415970.0, 8391720.0 ], [ 415970.0, 8391730.0 ], [ 415980.0, 8391730.0 ], [ 415980.0, 8391720.0 ], [ 415990.0, 8391720.0 ], [ 415990.0, 8391710.0 ], [ 416010.0, 8391710.0 ], [ 416010.0, 8391700.0 ], [ 416020.0, 8391700.0 ], [ 416020.0, 8391690.0 ], [ 416030.0, 8391690.0 ], [ 416030.0, 8391680.0 ], [ 416050.0, 8391680.0 ], [ 416050.0, 8391670.0 ], [ 416060.0, 8391670.0 ], [ 416060.0, 8391660.0 ], [ 416070.0, 8391660.0 ], [ 416070.0, 8391650.0 ], [ 416090.0, 8391650.0 ], [ 416090.0, 8391640.0 ], [ 416100.0, 8391640.0 ], [ 416100.0, 8391630.0 ], [ 416110.0, 8391630.0 ], [ 416110.0, 8391620.0 ], [ 416120.0, 8391620.0 ], [ 416120.0, 8391610.0 ], [ 416140.0, 8391610.0 ], [ 416140.0, 8391600.0 ], [ 416150.0, 8391600.0 ], [ 416150.0, 8391590.0 ], [ 416160.0, 8391590.0 ], [ 416160.0, 8391580.0 ], [ 416180.0, 8391580.0 ], [ 416180.0, 8391570.0 ], [ 416190.0, 8391570.0 ], [ 416190.0, 8391560.0 ], [ 416210.0, 8391560.0 ], [ 416210.0, 8391550.0 ], [ 416230.0, 8391550.0 ], [ 416230.0, 8391540.0 ], [ 416240.0, 8391540.0 ], [ 416240.0, 8391530.0 ], [ 416260.0, 8391530.0 ], [ 416260.0, 8391520.0 ], [ 416280.0, 8391520.0 ], [ 416280.0, 8391510.0 ], [ 416290.0, 8391510.0 ], [ 416290.0, 8391500.0 ], [ 416310.0, 8391500.0 ], [ 416310.0, 8391490.0 ], [ 416330.0, 8391490.0 ], [ 416330.0, 8391480.0 ], [ 416340.0, 8391480.0 ], [ 416340.0, 8391470.0 ], [ 416360.0, 8391470.0 ], [ 416360.0, 8391460.0 ], [ 416380.0, 8391460.0 ], [ 416380.0, 8391450.0 ], [ 416390.0, 8391450.0 ], [ 416390.0, 8391440.0 ], [ 416410.0, 8391440.0 ], [ 416410.0, 8391430.0 ], [ 416280.0, 8391430.0 ], [ 416280.0, 8391420.0 ], [ 416160.0, 8391420.0 ], [ 416160.0, 8391411.08891324698925 ], [ 415980.0, 8391411.08891324698925 ] ] ] } },
{ "type": "Feature", "properties": { "hex_id": 29 }, "geometry": { "type": "Polygon", "coordinates": [ [ [ 416645.618859408015851, 8393430.0 ], [ 416650.0, 8393430.0 ], [ 416650.0, 8393437.588358100503683 ], [ 416651.392362099897582, 8393440.0 ], [ 416660.0, 8393440.0 ], [ 416660.0, 8393454.908866176381707 ], [ 416662.939367483719252, 8393460.0 ], [ 416670.0, 8393460.0 ], [ 416670.0, 8393472.229374252259731 ], [ 416674.486372867540922, 8393480.0 ], [ 416680.0, 8393480.0 ], [ 416680.0, 8393489.549882328137755 ], [ 416686.033378251362592, 8393500.0 ], [ 416690.0, 8393500.0 ], [ 416690.0, 8393506.870390402153134 ], [ 416691.806880943244323, 8393510.0 ], [ 416700.0, 8393510.0 ], [ 416700.0, 8393524.190898478031158 ], [ 416703.353886327065993, 8393530.0 ], [ 416710.0, 8393530.0 ], [ 416710.0, 8393541.511406553909183 ], [ 416714.900891710887663, 8393550.0 ], [ 416720.0, 8393550.0 ], [ 416720.0, 8393558.831914629787207 ], [ 416726.447897094709333, 8393570.0 ], [ 416730.0, 8393570.0 ], [ 416730.0, 8393576.152422705665231 ], [ 417230.0, 8393576.152422705665231 ], [ 417480.0, 8393143.139720814302564 ], [ 417339.623216736887116, 8392900.0 ], [ 417290.0, 8392900.0 ], [ 417290.0, 8392910.0 ], [ 417240.0, 8392910.0 ], [ 417240.0, 8392920.0 ], [ 417190.0, 8392920.0 ], [ 417190.0, 8392930.0 ], [ 417130.0, 8392930.0 ], [ 417130.0, 8392940.0 ], [ 417080.0, 8392940.0 ], [ 417080.0, 8392950.0 ], [ 417030.0, 8392950.0 ], [ 417030.0, 8392960.0 ], [ 416970.0, 8392960.0 ], [ 416970.0, 8392970.0 ], [ 416920.0, 8392970.0 ], [ 416920.0, 8392980.0 ], [ 416870.0, 8392980.0 ], [ 416870.0, 8392990.0 ], [ 416810.0, 8392990.0 ], [ 416810.0, 8393000.0 ], [ 416760.0, 8393000.0 ], [ 416760.0, 8393010.0 ], [ 416710.0, 8393010.0 ], [ 416710.0, 8393020.0 ], [ 416690.0, 8393020.0 ], [ 416690.0, 8393100.0 ], [ 416680.0, 8393100.0 ], [ 416680.0, 8393190.0 ], [ 416670.0, 8393190.0 ], [ 416670.0, 8393280.0 ], [ 416660.0, 8393280.0 ], [ 416660.0, 8393340.0 ], [ 416650.0, 8393340.0 ], [ 416650.0, 8393400.0 ], [ 416640.0, 8393400.0 ], [ 416640.0, 8393420.267850024625659 ], [ 416645.618859408015851, 8393430.0 ] ] ] } },
{ "type": "Feature", "properties": { "hex_id": 30 }, "geometry": { "type": "Polygon", "coordinates": [ [ [ 417480.0, 8393143.139720814302564 ], [ 417530.0, 8393143.139720814302564 ], [ 417530.0, 8393140.0 ], [ 417520.0, 8393140.0 ], [ 417520.0, 8393120.0 ], [ 417510.0, 8393120.0 ], [ 417510.0, 8393100.0 ], [ 417500.0, 8393100.0 ], [ 417500.0, 8393080.0 ], [ 417490.0, 8393080.0 ], [ 417490.0, 8393060.0 ], [ 417480.0, 8393060.0 ], [ 417480.0, 8393040.0 ], [ 417470.0, 8393040.0 ], [ 417470.0, 8393020.0 ], [ 417460.0, 8393020.0 ], [ 417460.0, 8393000.0 ], [ 417450.0, 8393000.0 ], [ 417450.0, 8392980.0 ], [ 417440.0, 8392980.0 ], [ 417440.0, 8392960.0 ], [ 417430.0, 8392960.0 ], [ 417430.0, 8392940.0 ], [ 417420.0, 8392940.0 ], [ 417420.0, 8392920.0 ], [ 417410.0, 8392920.0 ], [ 417410.0, 8392900.0 ], [ 417400.0, 8392900.0 ], [ 417400.0, 8392890.0 ], [ 417350.0, 8392890.0 ], [ 417350.0, 8392900.0 ], [ 417339.623216736887116, 8392900.0 ], [ 417480.0, 8393143.139720814302564 ] ] ] } },
{ "type": "Feature", "properties": { "hex_id": 31 }, "geometry": { "type": "Polygon", "coordinates": [ [ [ 418230.0, 8393576.152422705665231 ], [ 418730.0, 8393576.152422705665231 ], [ 418860.569162127270829, 8393350.0 ], [ 418860.0, 8393350.0 ], [ 418860.0, 8393340.0 ], [ 418850.0, 8393340.0 ], [ 418850.0, 8393330.0 ], [ 418840.0, 8393330.0 ], [ 418840.0, 8393320.0 ], [ 418830.0, 8393320.0 ], [ 418830.0, 8393300.0 ], [ 418820.0, 8393300.0 ], [ 418820.0, 8393290.0 ], [ 418810.0, 8393290.0 ], [ 418810.0, 8393280.0 ], [ 418800.0, 8393280.0 ], [ 418800.0, 8393260.0 ], [ 418790.0, 8393260.0 ], [ 418790.0, 8393250.0 ], [ 418780.0, 8393250.0 ], [ 418780.0, 8393240.0 ], [ 418770.0, 8393240.0 ], [ 418770.0, 8393230.0 ], [ 418760.0, 8393230.0 ], [ 418760.0, 8393210.0 ], [ 418730.0, 8393210.0 ], [ 418730.0, 8393220.0 ], [ 418720.0, 8393220.0 ], [ 418720.0, 8393230.0 ], [ 418710.0, 8393230.0 ], [ 418710.0, 8393240.0 ], [ 418690.0, 8393240.0 ], [ 418690.0, 8393250.0 ], [ 418680.0, 8393250.0 ], [ 418680.0, 8393260.0 ], [ 418660.0, 8393260.0 ], [ 418660.0, 8393270.0 ], [ 418650.0, 8393270.0 ], [ 418650.0, 8393280.0 ], [ 418630.0, 8393280.0 ], [ 418630.0, 8393290.0 ], [ 418620.0, 8393290.0 ], [ 418620.0, 8393300.0 ], [ 418600.0, 8393300.0 ], [ 418600.0, 8393310.0 ], [ 418590.0, 8393310.0 ], [ 418590.0, 8393320.0 ], [ 418580.0, 8393320.0 ], [ 418580.0, 8393330.0 ], [ 418560.0, 8393330.0 ], [ 418560.0, 8393340.0 ], [ 418550.0, 8393340.0 ], [ 418550.0, 8393350.0 ], [ 418530.0, 8393350.0 ], [ 418530.0, 8393360.0 ], [ 418520.0, 8393360.0 ], [ 418520.0, 8393370.0 ], [ 418500.0, 8393370.0 ], [ 418500.0, 8393380.0 ], [ 418490.0, 8393380.0 ], [ 418490.0, 8393390.0 ], [ 418470.0, 8393390.0 ], [ 418470.0, 8393400.0 ], [ 418460.0, 8393400.0 ], [ 418460.0, 8393410.0 ], [ 418440.0, 8393410.0 ], [ 418440.0, 8393420.0 ], [ 418430.0, 8393420.0 ], [ 418430.0, 8393430.0 ], [ 418420.0, 8393430.0 ], [ 418420.0, 8393440.0 ], [ 418400.0, 8393440.0 ], [ 418400.0, 8393450.0 ], [ 418390.0, 8393450.0 ], [ 418390.0, 8393460.0 ], [ 418370.0, 8393460.0 ], [ 418370.0, 8393470.0 ], [ 418360.0, 8393470.0 ], [ 418360.0, 8393480.0 ], [ 418340.0, 8393480.0 ], [ 418340.0, 8393490.0 ], [ 418330.0, 8393490.0 ], [ 418330.0, 8393500.0 ], [ 418310.0, 8393500.0 ], [ 418310.0, 8393510.0 ], [ 418290.0, 8393510.0 ], [ 418290.0, 8393520.0 ], [ 418270.0, 8393520.0 ], [ 418270.0, 8393530.0 ], [ 418203.353886327065993, 8393530.0 ], [ 418230.0, 8393576.152422705665231 ] ] ] } },
{ "type": "Feature", "properties": { "hex_id": 32 }, "geometry": { "type": "MultiPolygon", "coordinates": [ [ [ [ 416640.0, 8393420.267850026488304 ], [ 416640.0, 8393430.0 ], [ 416645.618859406909905, 8393430.0 ], [ 416640.0, 8393420.267850026488304 ] ] ], [ [ [ 416650.0, 8393437.588358102366328 ], [ 416650.0, 8393440.0 ], [ 416651.392362098849844, 8393440.0 ], [ 416650.0, 8393437.588358102366328 ] ] ], [ [ [ 416660.0, 8393454.908866178244352 ], [ 416660.0, 8393460.0 ], [ 416662.939367482671514, 8393460.0 ], [ 416660.0, 8393454.908866178244352 ] ] ], [ [ [ 416670.0, 8393472.229374254122376 ], [ 416670.0, 8393480.0 ], [ 416674.486372866493184, 8393480.0 ], [ 416670.0, 8393472.229374254122376 ] ] ], [ [ [ 416680.0, 8393489.549882330000401 ], [ 416680.0, 8393500.0 ], [ 416686.033378250256646, 8393500.0 ], [ 416680.0, 8393489.549882330000401 ] ] ], [ [ [ 416690.0, 8393506.870390404015779 ], [ 416690.0, 8393510.0 ], [ 416691.806880942196585, 8393510.0 ], [ 416690.0, 8393506.870390404015779 ] ] ], [ [ [ 416700.0, 8393524.190898479893804 ], [ 416700.0, 8393530.0 ], [ 416703.353886326018255, 8393530.0 ], [ 416700.0, 8393524.190898479893804 ] ] ], [ [ [ 416710.0, 8393550.0 ], [ 416714.900891709839925, 8393550.0 ], [ 416710.0, 8393541.511406555771828 ], [ 416710.0, 8393550.0 ] ] ], [ [ [ 416720.0, 8393570.0 ], [ 416726.447897093661595, 8393570.0 ], [ 416720.0, 8393558.831914631649852 ], [ 416720.0, 8393570.0 ] ] ] ] } },
{ "type": "Feature", "properties": { "hex_id": 33 }, "geometry": { "type": "Polygon", "coordinates": [ [ [ 417480.0, 8394009.165124598890543 ], [ 417230.0, 8393576.152422707527876 ], [ 416730.0, 8393576.152422707527876 ], [ 416730.0, 8393580.0 ], [ 416740.0, 8393580.0 ], [ 416740.0, 8393600.0 ], [ 416750.0, 8393600.0 ], [ 416750.0, 8393620.0 ], [ 416760.0, 8393620.0 ], [ 416760.0, 8393640.0 ], [ 416770.0, 8393640.0 ], [ 416770.0, 8393650.0 ], [ 416780.0, 8393650.0 ], [ 416780.0, 8393670.0 ], [ 416790.0, 8393670.0 ], [ 416790.0, 8393690.0 ], [ 416800.0, 8393690.0 ], [ 416800.0, 8393710.0 ], [ 416810.0, 8393710.0 ], [ 416810.0, 8393720.0 ], [ 416820.0, 8393720.0 ], [ 416820.0, 8393740.0 ], [ 416830.0, 8393740.0 ], [ 416830.0, 8393760.0 ], [ 416840.0, 8393760.0 ], [ 416840.0, 8393780.0 ], [ 416850.0, 8393780.0 ], [ 416850.0, 8393790.0 ], [ 416860.0, 8393790.0 ], [ 416860.0, 8393810.0 ], [ 416870.0, 8393810.0 ], [ 416870.0, 8393820.0 ], [ 416880.0, 8393820.0 ], [ 416880.0, 8393830.0 ], [ 416900.0, 8393830.0 ], [ 416900.0, 8393840.0 ], [ 416910.0, 8393840.0 ], [ 416910.0, 8393850.0 ], [ 416930.0, 8393850.0 ], [ 416930.0, 8393860.0 ], [ 416950.0, 8393860.0 ], [ 416950.0, 8393870.0 ], [ 416960.0, 8393870.0 ], [ 416960.0, 8393880.0 ], [ 416980.0, 8393880.0 ], [ 416980.0, 8393890.0 ], [ 416990.0, 8393890.0 ], [ 416990.0, 8393900.0 ], [ 417010.0, 8393900.0 ], [ 417010.0, 8393910.0 ], [ 417020.0, 8393910.0 ], [ 417020.0, 8393920.0 ], [ 417040.0, 8393920.0 ], [ 417040.0, 8393930.0 ], [ 417050.0, 8393930.0 ], [ 417050.0, 8393940.0 ], [ 417070.0, 8393940.0 ], [ 417070.0, 8393950.0 ], [ 417080.0, 8393950.0 ], [ 417080.0, 8393960.0 ], [ 417100.0, 8393960.0 ], [ 417100.0, 8393970.0 ], [ 417110.0, 8393970.0 ], [ 417110.0, 8393980.0 ], [ 417130.0, 8393980.0 ], [ 417130.0, 8393990.0 ], [ 417140.0, 8393990.0 ], [ 417140.0, 8394000.0 ], [ 417160.0, 8394000.0 ], [ 417160.0, 8394010.0 ], [ 417170.0, 8394010.0 ], [ 417170.0, 8394020.0 ], [ 417190.0, 8394020.0 ], [ 417190.0, 8394030.0 ], [ 417200.0, 8394030.0 ], [ 417200.0, 8394040.0 ], [ 417220.0, 8394040.0 ], [ 417220.0, 8394050.0 ], [ 417230.0, 8394050.0 ], [ 417230.0, 8394060.0 ], [ 417250.0, 8394060.0 ], [ 417250.0, 8394070.0 ], [ 417260.0, 8394070.0 ], [ 417260.0, 8394090.0 ], [ 417270.0, 8394090.0 ], [ 417270.0, 8394170.0 ], [ 417280.0, 8394170.0 ], [ 417280.0, 8394180.0 ], [ 417270.0, 8394180.0 ], [ 417270.0, 8394220.0 ], [ 417280.0, 8394220.0 ], [ 417280.0, 8394260.0 ], [ 417300.0, 8394260.0 ], [ 417300.0, 8394300.0 ], [ 417312.086406397109386, 8394300.0 ], [ 417480.0, 8394009.165124598890543 ] ] ] } },
{ "type": "Feature", "properties": { "hex_id": 34 }, "geometry": { "type": "Polygon", "coordinates": [ [ [ 417480.0, 8394009.165124598890543 ], [ 417980.0, 8394009.165124598890543 ], [ 418230.0, 8393576.152422707527876 ], [ 418203.353886326018255, 8393530.0 ], [ 418190.0, 8393530.0 ], [ 418190.0, 8393540.0 ], [ 418120.0, 8393540.0 ], [ 418120.0, 8393550.0 ], [ 418050.0, 8393550.0 ], [ 418050.0, 8393560.0 ], [ 417990.0, 8393560.0 ], [ 417990.0, 8393550.0 ], [ 417970.0, 8393550.0 ], [ 417970.0, 8393540.0 ], [ 417940.0, 8393540.0 ], [ 417940.0, 8393530.0 ], [ 417920.0, 8393530.0 ], [ 417920.0, 8393520.0 ], [ 417890.0, 8393520.0 ], [ 417890.0, 8393510.0 ], [ 417870.0, 8393510.0 ], [ 417870.0, 8393500.0 ], [ 417840.0, 8393500.0 ], [ 417840.0, 8393490.0 ], [ 417820.0, 8393490.0 ], [ 417820.0, 8393480.0 ], [ 417790.0, 8393480.0 ], [ 417790.0, 8393470.0 ], [ 417760.0, 8393470.0 ], [ 417760.0, 8393460.0 ], [ 417740.0, 8393460.0 ], [ 417740.0, 8393450.0 ], [ 417710.0, 8393450.0 ], [ 417710.0, 8393440.0 ], [ 417690.0, 8393440.0 ], [ 417690.0, 8393430.0 ], [ 417670.0, 8393430.0 ], [ 417670.0, 8393420.0 ], [ 417660.0, 8393420.0 ], [ 417660.0, 8393400.0 ], [ 417650.0, 8393400.0 ], [ 417650.0, 8393380.0 ], [ 417640.0, 8393380.0 ], [ 417640.0, 8393360.0 ], [ 417630.0, 8393360.0 ], [ 417630.0, 8393340.0 ], [ 417620.0, 8393340.0 ], [ 417620.0, 8393320.0 ], [ 417610.0, 8393320.0 ], [ 417610.0, 8393300.0 ], [ 417600.0, 8393300.0 ], [ 417600.0, 8393280.0 ], [ 417590.0, 8393280.0 ], [ 417590.0, 8393260.0 ], [ 417580.0, 8393260.0 ], [ 417580.0, 8393240.0 ], [ 417570.0, 8393240.0 ], [ 417570.0, 8393220.0 ], [ 417560.0, 8393220.0 ], [ 417560.0, 8393200.0 ], [ 417550.0, 8393200.0 ], [ 417550.0, 8393180.0 ], [ 417540.0, 8393180.0 ], [ 417540.0, 8393160.0 ], [ 417530.0, 8393160.0 ], [ 417530.0, 8393143.139720816165209 ], [ 417480.0, 8393143.139720816165209 ], [ 417230.0, 8393576.152422707527876 ], [ 417480.0, 8394009.165124598890543 ] ] ] } },
{ "type": "Feature", "properties": { "hex_id": 35 }, "geometry": { "type": "Polygon", "coordinates": [ [ [ 418230.0, 8394442.17782649025321 ], [ 418730.0, 8394442.17782649025321 ], [ 418980.0, 8394009.165124598890543 ], [ 418730.0, 8393576.152422707527876 ], [ 418230.0, 8393576.152422707527876 ], [ 417980.0, 8394009.165124598890543 ], [ 418230.0, 8394442.17782649025321 ] ] ] } },
{ "type": "Feature", "properties": { "hex_id": 36 }, "geometry": { "type": "Polygon", "coordinates": [ [ [ 418980.0, 8394009.165124598890543 ], [ 419370.0, 8394009.165124598890543 ], [ 419370.0, 8394000.0 ], [ 419360.0, 8394000.0 ], [ 419360.0, 8393990.0 ], [ 419350.0, 8393990.0 ], [ 419350.0, 8393980.0 ], [ 419340.0, 8393980.0 ], [ 419340.0, 8393960.0 ], [ 419330.0, 8393960.0 ], [ 419330.0, 8393950.0 ], [ 419320.0, 8393950.0 ], [ 419320.0, 8393940.0 ], [ 419310.0, 8393940.0 ], [ 419310.0, 8393920.0 ], [ 419300.0, 8393920.0 ], [ 419300.0, 8393910.0 ], [ 419290.0, 8393910.0 ], [ 419290.0, 8393900.0 ], [ 419280.0, 8393900.0 ], [ 419280.0, 8393890.0 ], [ 419270.0, 8393890.0 ], [ 419270.0, 8393870.0 ], [ 419260.0, 8393870.0 ], [ 419260.0, 8393860.0 ], [ 419250.0, 8393860.0 ], [ 419250.0, 8393850.0 ], [ 419240.0, 8393850.0 ], [ 419240.0, 8393830.0 ], [ 419230.0, 8393830.0 ], [ 419230.0, 8393820.0 ], [ 419220.0, 8393820.0 ], [ 419220.0, 8393810.0 ], [ 419210.0, 8393810.0 ], [ 419210.0, 8393790.0 ], [ 419200.0, 8393790.0 ], [ 419200.0, 8393780.0 ], [ 419190.0, 8393780.0 ], [ 419190.0, 8393770.0 ], [ 419180.0, 8393770.0 ], [ 419180.0, 8393760.0 ], [ 419170.0, 8393760.0 ], [ 419170.0, 8393740.0 ], [ 419160.0, 8393740.0 ], [ 419160.0, 8393730.0 ], [ 419150.0, 8393730.0 ], [ 419150.0, 8393720.0 ], [ 419140.0, 8393720.0 ], [ 419140.0, 8393700.0 ], [ 419130.0, 8393700.0 ], [ 419130.0, 8393690.0 ], [ 419120.0, 8393690.0 ], [ 419120.0, 8393680.0 ], [ 419110.0, 8393680.0 ], [ 419110.0, 8393670.0 ], [ 419100.0, 8393670.0 ], [ 419100.0, 8393650.0 ], [ 419090.0, 8393650.0 ], [ 419090.0, 8393640.0 ], [ 419080.0, 8393640.0 ], [ 419080.0, 8393630.0 ], [ 419070.0, 8393630.0 ], [ 419070.0, 8393610.0 ], [ 419060.0, 8393610.0 ], [ 419060.0, 8393600.0 ], [ 419050.0, 8393600.0 ], [ 419050.0, 8393590.0 ], [ 419040.0, 8393590.0 ], [ 419040.0, 8393570.0 ], [ 419030.0, 8393570.0 ], [ 419030.0, 8393560.0 ], [ 419020.0, 8393560.0 ], [ 419020.0, 8393550.0 ], [ 419010.0, 8393550.0 ], [ 419010.0, 8393540.0 ], [ 419000.0, 8393540.0 ], [ 419000.0, 8393520.0 ], [ 418990.0, 8393520.0 ], [ 418990.0, 8393510.0 ], [ 418980.0, 8393510.0 ], [ 418980.0, 8393500.0 ], [ 418970.0, 8393500.0 ], [ 418970.0, 8393480.0 ], [ 418960.0, 8393480.0 ], [ 418960.0, 8393470.0 ], [ 418950.0, 8393470.0 ], [ 418950.0, 8393460.0 ], [ 418940.0, 8393460.0 ], [ 418940.0, 8393450.0 ], [ 418930.0, 8393450.0 ], [ 418930.0, 8393430.0 ], [ 418920.0, 8393430.0 ], [ 418920.0, 8393420.0 ], [ 418910.0, 8393420.0 ], [ 418910.0, 8393410.0 ], [ 418900.0, 8393410.0 ], [ 418900.0, 8393390.0 ], [ 418890.0, 8393390.0 ], [ 418890.0, 8393380.0 ], [ 418880.0, 8393380.0 ], [ 418880.0, 8393370.0 ], [ 418870.0, 8393370.0 ], [ 418870.0, 8393350.0 ], [ 418860.569162128318567, 8393350.0 ], [ 418730.0, 8393576.152422707527876 ], [ 418980.0, 8394009.165124598890543 ] ] ] } },
{ "type": "Feature", "properties": { "hex_id": 37 }, "geometry": { "type": "Polygon", "coordinates": [ [ [ 417980.0, 8394875.190528381615877 ], [ 418230.0, 8394442.17782649025321 ], [ 417980.0, 8394009.165124598890543 ], [ 417480.0, 8394009.165124598890543 ], [ 417312.086406397109386, 8394300.0 ], [ 417320.0, 8394300.0 ], [ 417320.0, 8394320.0 ], [ 417340.0, 8394320.0 ], [ 417340.0, 8394360.0 ], [ 417360.0, 8394360.0 ], [ 417360.0, 8394380.0 ], [ 417380.0, 8394380.0 ], [ 417380.0, 8394420.0 ], [ 417400.0, 8394420.0 ], [ 417400.0, 8394440.0 ], [ 417420.0, 8394440.0 ], [ 417420.0, 8394460.0 ], [ 417460.0, 8394460.0 ], [ 417460.0, 8394440.0 ], [ 417500.0, 8394440.0 ], [ 417500.0, 8394480.0 ], [ 417520.0, 8394480.0 ], [ 417520.0, 8394540.0 ], [ 417540.0, 8394540.0 ], [ 417540.0, 8394560.0 ], [ 417520.0, 8394560.0 ], [ 417520.0, 8394600.0 ], [ 417540.0, 8394600.0 ], [ 417540.0, 8394720.0 ], [ 417560.0, 8394720.0 ], [ 417560.0, 8394740.0 ], [ 417580.0, 8394740.0 ], [ 417580.0, 8394860.0 ], [ 417560.0, 8394860.0 ], [ 417560.0, 8394875.190528381615877 ], [ 417980.0, 8394875.190528381615877 ] ] ] } },
{ "type": "Feature", "properties": { "hex_id": 38 }, "geometry": { "type": "Polygon", "coordinates": [ [ [ 418230.0, 8395308.203230272978544 ], [ 418730.0, 8395308.203230272978544 ], [ 418980.0, 8394875.190528381615877 ], [ 418730.0, 8394442.17782649025321 ], [ 418230.0, 8394442.17782649025321 ], [ 417980.0, 8394875.190528381615877 ], [ 418230.0, 8395308.203230272978544 ] ], [ [ 418680.0, 8394860.0 ], [ 418680.0, 8394840.0 ], [ 418740.0, 8394840.0 ], [ 418740.0, 8394820.0 ], [ 418800.0, 8394820.0 ], [ 418800.0, 8394840.0 ], [ 418820.0, 8394840.0 ], [ 418820.0, 8394860.0 ], [ 418800.0, 8394860.0 ], [ 418800.0, 8394920.0 ], [ 418780.0, 8394920.0 ], [ 418780.0, 8394940.0 ], [ 418700.0, 8394940.0 ], [ 418700.0, 8394880.0 ], [ 418720.0, 8394880.0 ], [ 418720.0, 8394860.0 ], [ 418680.0, 8394860.0 ] ], [ [ 418780.0, 8394800.0 ], [ 418780.0, 8394780.0 ], [ 418820.0, 8394780.0 ], [ 418820.0, 8394800.0 ], [ 418780.0, 8394800.0 ] ] ] } },
{ "type": "Feature", "properties": { "hex_id": 39 }, "geometry": { "type": "Polygon", "coordinates": [ [ [ 418980.0, 8394875.190528381615877 ], [ 419480.0, 8394875.190528381615877 ], [ 419720.0, 8394459.498334566131234 ], [ 419720.0, 8394450.0 ], [ 419710.0, 8394450.0 ], [ 419710.0, 8394440.0 ], [ 419700.0, 8394440.0 ], [ 419700.0, 8394430.0 ], [ 419690.0, 8394430.0 ], [ 419690.0, 8394420.0 ], [ 419680.0, 8394420.0 ], [ 419680.0, 8394400.0 ], [ 419670.0, 8394400.0 ], [ 419670.0, 8394390.0 ], [ 419660.0, 8394390.0 ], [ 419660.0, 8394380.0 ], [ 419650.0, 8394380.0 ], [ 419650.0, 8394360.0 ], [ 419640.0, 8394360.0 ], [ 419640.0, 8394350.0 ], [ 419630.0, 8394350.0 ], [ 419630.0, 8394340.0 ], [ 419620.0, 8394340.0 ], [ 419620.0, 8394320.0 ], [ 419610.0, 8394320.0 ], [ 419610.0, 8394310.0 ], [ 419600.0, 8394310.0 ], [ 419600.0, 8394300.0 ], [ 419590.0, 8394300.0 ], [ 419590.0, 8394290.0 ], [ 419580.0, 8394290.0 ], [ 419580.0, 8394270.0 ], [ 419570.0, 8394270.0 ], [ 419570.0, 8394260.0 ], [ 419560.0, 8394260.0 ], [ 419560.0, 8394250.0 ], [ 419550.0, 8394250.0 ], [ 419550.0, 8394230.0 ], [ 419540.0, 8394230.0 ], [ 419540.0, 8394220.0 ], [ 419530.0, 8394220.0 ], [ 419530.0, 8394210.0 ], [ 419520.0, 8394210.0 ], [ 419520.0, 8394200.0 ], [ 419510.0, 8394200.0 ], [ 419510.0, 8394180.0 ], [ 419500.0, 8394180.0 ], [ 419500.0, 8394170.0 ], [ 419490.0, 8394170.0 ], [ 419490.0, 8394160.0 ], [ 419480.0, 8394160.0 ], [ 419480.0, 8394140.0 ], [ 419470.0, 8394140.0 ], [ 419470.0, 8394130.0 ], [ 419460.0, 8394130.0 ], [ 419460.0, 8394120.0 ], [ 419450.0, 8394120.0 ], [ 419450.0, 8394110.0 ], [ 419440.0, 8394110.0 ], [ 419440.0, 8394090.0 ], [ 419430.0, 8394090.0 ], [ 419430.0, 8394080.0 ], [ 419420.0, 8394080.0 ], [ 419420.0, 8394070.0 ], [ 419410.0, 8394070.0 ], [ 419410.0, 8394050.0 ], [ 419400.0, 8394050.0 ], [ 419400.0, 8394040.0 ], [ 419390.0, 8394040.0 ], [ 419390.0, 8394030.0 ], [ 419380.0, 8394030.0 ], [ 419380.0, 8394010.0 ], [ 419370.0, 8394010.0 ], [ 419370.0, 8394009.165124598890543 ], [ 418980.0, 8394009.165124598890543 ], [ 418730.0, 8394442.17782649025321 ], [ 418980.0, 8394875.190528381615877 ] ] ] } },
{ "type": "Feature", "properties": { "hex_id": 40 }, "geometry": { "type": "Polygon", "coordinates": [ [ [ 419546.285279344534501, 8394990.0 ], [ 419550.0, 8394990.0 ], [ 419550.0, 8394980.0 ], [ 419560.0, 8394980.0 ], [ 419560.0, 8394960.0 ], [ 419570.0, 8394960.0 ], [ 419570.0, 8394950.0 ], [ 419580.0, 8394950.0 ], [ 419580.0, 8394940.0 ], [ 419590.0, 8394940.0 ], [ 419590.0, 8394930.0 ], [ 419600.0, 8394930.0 ], [ 419600.0, 8394920.0 ], [ 419620.0, 8394920.0 ], [ 419620.0, 8394910.0 ], [ 419640.0, 8394910.0 ], [ 419640.0, 8394900.0 ], [ 419650.0, 8394900.0 ], [ 419650.0, 8394890.0 ], [ 419670.0, 8394890.0 ], [ 419670.0, 8394880.0 ], [ 419680.0, 8394880.0 ], [ 419680.0, 8394860.0 ], [ 419690.0, 8394860.0 ], [ 419690.0, 8394850.0 ], [ 419700.0, 8394850.0 ], [ 419700.0, 8394840.0 ], [ 419710.0, 8394840.0 ], [ 419710.0, 8394820.0 ], [ 419720.0, 8394820.0 ], [ 419720.0, 8394800.0 ], [ 419730.0, 8394800.0 ], [ 419730.0, 8394790.0 ], [ 419740.0, 8394790.0 ], [ 419740.0, 8394770.0 ], [ 419750.0, 8394770.0 ], [ 419750.0, 8394760.0 ], [ 419760.0, 8394760.0 ], [ 419760.0, 8394750.0 ], [ 419770.0, 8394750.0 ], [ 419770.0, 8394730.0 ], [ 419790.0, 8394730.0 ], [ 419790.0, 8394690.0 ], [ 419800.0, 8394690.0 ], [ 419800.0, 8394680.0 ], [ 419810.0, 8394680.0 ], [ 419810.0, 8394670.0 ], [ 419820.0, 8394670.0 ], [ 419820.0, 8394660.0 ], [ 419840.0, 8394660.0 ], [ 419840.0, 8394650.0 ], [ 419860.0, 8394650.0 ], [ 419860.0, 8394640.0 ], [ 419850.0, 8394640.0 ], [ 419850.0, 8394620.0 ], [ 419840.0, 8394620.0 ], [ 419840.0, 8394610.0 ], [ 419830.0, 8394610.0 ], [ 419830.0, 8394600.0 ], [ 419820.0, 8394600.0 ], [ 419820.0, 8394580.0 ], [ 419810.0, 8394580.0 ], [ 419810.0, 8394570.0 ], [ 419800.0, 8394570.0 ], [ 419800.0, 8394560.0 ], [ 419790.0, 8394560.0 ], [ 419790.0, 8394540.0 ], [ 419780.0, 8394540.0 ], [ 419780.0, 8394530.0 ], [ 419770.0, 8394530.0 ], [ 419770.0, 8394520.0 ], [ 419760.0, 8394520.0 ], [ 419760.0, 8394510.0 ], [ 419750.0, 8394510.0 ], [ 419750.0, 8394490.0 ], [ 419740.0, 8394490.0 ], [ 419740.0, 8394480.0 ], [ 419730.0, 8394480.0 ], [ 419730.0, 8394470.0 ], [ 419720.0, 8394470.0 ], [ 419720.0, 8394459.498334566131234 ], [ 419480.0, 8394875.190528381615877 ], [ 419546.285279344534501, 8394990.0 ] ] ] } },
{ "type": "Feature", "properties": { "hex_id": 41 }, "geometry": { "type": "Polygon", "coordinates": [ [ [ 418230.0, 8395308.203230274841189 ], [ 417980.0, 8394875.190528383478522 ], [ 417560.0, 8394875.190528383478522 ], [ 417560.0, 8394880.0 ], [ 417540.0, 8394880.0 ], [ 417540.0, 8394930.0 ], [ 417560.0, 8394930.0 ], [ 417560.0, 8394940.0 ], [ 417590.0, 8394940.0 ], [ 417590.0, 8394950.0 ], [ 417610.0, 8394950.0 ], [ 417610.0, 8394960.0 ], [ 417630.0, 8394960.0 ], [ 417630.0, 8394970.0 ], [ 417660.0, 8394970.0 ], [ 417660.0, 8394980.0 ], [ 417680.0, 8394980.0 ], [ 417680.0, 8394990.0 ], [ 417700.0, 8394990.0 ], [ 417700.0, 8395000.0 ], [ 417730.0, 8395000.0 ], [ 417730.0, 8395010.0 ], [ 417750.0, 8395010.0 ], [ 417750.0, 8395020.0 ], [ 417770.0, 8395020.0 ], [ 417770.0, 8395030.0 ], [ 417800.0, 8395030.0 ], [ 417800.0, 8395040.0 ], [ 417820.0, 8395040.0 ], [ 417820.0, 8395050.0 ], [ 417850.0, 8395050.0 ], [ 417850.0, 8395060.0 ], [ 417870.0, 8395060.0 ], [ 417870.0, 8395070.0 ], [ 417890.0, 8395070.0 ], [ 417890.0, 8395080.0 ], [ 417920.0, 8395080.0 ], [ 417920.0, 8395090.0 ], [ 417930.0, 8395090.0 ], [ 417930.0, 8395100.0 ], [ 417940.0, 8395100.0 ], [ 417940.0, 8395120.0 ], [ 417950.0, 8395120.0 ], [ 417950.0, 8395130.0 ], [ 417960.0, 8395130.0 ], [ 417960.0, 8395150.0 ], [ 417970.0, 8395150.0 ], [ 417970.0, 8395160.0 ], [ 417980.0, 8395160.0 ], [ 417980.0, 8395170.0 ], [ 417990.0, 8395170.0 ], [ 417990.0, 8395190.0 ], [ 418000.0, 8395190.0 ], [ 418000.0, 8395200.0 ], [ 418010.0, 8395200.0 ], [ 418010.0, 8395220.0 ], [ 418020.0, 8395220.0 ], [ 418020.0, 8395230.0 ], [ 418030.0, 8395230.0 ], [ 418030.0, 8395240.0 ], [ 418040.0, 8395240.0 ], [ 418040.0, 8395260.0 ], [ 418050.0, 8395260.0 ], [ 418050.0, 8395270.0 ], [ 418060.0, 8395270.0 ], [ 418060.0, 8395290.0 ], [ 418070.0, 8395290.0 ], [ 418070.0, 8395300.0 ], [ 418080.0, 8395300.0 ], [ 418080.0, 8395310.0 ], [ 418090.0, 8395310.0 ], [ 418090.0, 8395330.0 ], [ 418100.0, 8395330.0 ], [ 418100.0, 8395340.0 ], [ 418110.0, 8395340.0 ], [ 418110.0, 8395350.0 ], [ 418120.0, 8395350.0 ], [ 418120.0, 8395370.0 ], [ 418130.0, 8395370.0 ], [ 418130.0, 8395380.0 ], [ 418140.0, 8395380.0 ], [ 418140.0, 8395400.0 ], [ 418150.0, 8395400.0 ], [ 418150.0, 8395410.0 ], [ 418160.0, 8395410.0 ], [ 418160.0, 8395420.0 ], [ 418165.454104904492851, 8395420.0 ], [ 418230.0, 8395308.203230274841189 ] ] ] } },
{ "type": "Feature", "properties": { "hex_id": 42 }, "geometry": { "type": "Polygon", "coordinates": [ [ [ 418980.0, 8395741.215932166203856 ], [ 418730.0, 8395308.203230274841189 ], [ 418230.0, 8395308.203230274841189 ], [ 418165.454104904492851, 8395420.0 ], [ 418170.0, 8395420.0 ], [ 418170.0, 8395440.0 ], [ 418180.0, 8395440.0 ], [ 418180.0, 8395450.0 ], [ 418190.0, 8395450.0 ], [ 418190.0, 8395470.0 ], [ 418200.0, 8395470.0 ], [ 418200.0, 8395480.0 ], [ 418210.0, 8395480.0 ], [ 418210.0, 8395490.0 ], [ 418220.0, 8395490.0 ], [ 418220.0, 8395510.0 ], [ 418230.0, 8395510.0 ], [ 418230.0, 8395520.0 ], [ 418240.0, 8395520.0 ], [ 418240.0, 8395540.0 ], [ 418250.0, 8395540.0 ], [ 418250.0, 8395550.0 ], [ 418260.0, 8395550.0 ], [ 418260.0, 8395560.0 ], [ 418270.0, 8395560.0 ], [ 418270.0, 8395580.0 ], [ 418280.0, 8395580.0 ], [ 418280.0, 8395590.0 ], [ 418290.0, 8395590.0 ], [ 418290.0, 8395600.0 ], [ 418300.0, 8395600.0 ], [ 418300.0, 8395620.0 ], [ 418310.0, 8395620.0 ], [ 418310.0, 8395630.0 ], [ 418320.0, 8395630.0 ], [ 418320.0, 8395650.0 ], [ 418330.0, 8395650.0 ], [ 418330.0, 8395660.0 ], [ 418340.0, 8395660.0 ], [ 418340.0, 8395670.0 ], [ 418350.0, 8395670.0 ], [ 418350.0, 8395690.0 ], [ 418360.0, 8395690.0 ], [ 418360.0, 8395700.0 ], [ 418370.0, 8395700.0 ], [ 418370.0, 8395720.0 ], [ 418380.0, 8395720.0 ], [ 418380.0, 8395730.0 ], [ 418390.0, 8395730.0 ], [ 418390.0, 8395740.0 ], [ 418400.0, 8395740.0 ], [ 418400.0, 8395760.0 ], [ 418410.0, 8395760.0 ], [ 418410.0, 8395770.0 ], [ 418420.0, 8395770.0 ], [ 418420.0, 8395790.0 ], [ 418430.0, 8395790.0 ], [ 418430.0, 8395800.0 ], [ 418440.0, 8395800.0 ], [ 418440.0, 8395810.0 ], [ 418450.0, 8395810.0 ], [ 418450.0, 8395830.0 ], [ 418460.0, 8395830.0 ], [ 418460.0, 8395840.0 ], [ 418470.0, 8395840.0 ], [ 418470.0, 8395850.0 ], [ 418480.0, 8395850.0 ], [ 418480.0, 8395870.0 ], [ 418490.0, 8395870.0 ], [ 418490.0, 8395880.0 ], [ 418500.0, 8395880.0 ], [ 418500.0, 8395900.0 ], [ 418510.0, 8395900.0 ], [ 418510.0, 8395910.0 ], [ 418520.0, 8395910.0 ], [ 418520.0, 8395920.0 ], [ 418530.0, 8395920.0 ], [ 418530.0, 8395940.0 ], [ 418540.0, 8395940.0 ], [ 418540.0, 8395950.0 ], [ 418550.0, 8395950.0 ], [ 418550.0, 8395960.0 ], [ 418570.0, 8395960.0 ], [ 418570.0, 8395950.0 ], [ 418610.0, 8395950.0 ], [ 418610.0, 8395960.0 ], [ 418620.0, 8395960.0 ], [ 418620.0, 8395970.0 ], [ 418640.0, 8395970.0 ], [ 418640.0, 8395980.0 ], [ 418650.0, 8395980.0 ], [ 418650.0, 8395990.0 ], [ 418660.0, 8395990.0 ], [ 418660.0, 8396000.0 ], [ 418670.0, 8396000.0 ], [ 418670.0, 8396010.0 ], [ 418680.0, 8396010.0 ], [ 418680.0, 8396020.0 ], [ 418720.0, 8396020.0 ], [ 418720.0, 8396030.0 ], [ 418750.0, 8396030.0 ], [ 418750.0, 8396050.0 ], [ 418760.0, 8396050.0 ], [ 418760.0, 8396080.0 ], [ 418770.0, 8396080.0 ], [ 418770.0, 8396104.946601754054427 ], [ 418980.0, 8395741.215932166203856 ] ] ] } },
{ "type": "Feature", "properties": { "hex_id": 43 }, "geometry": { "type": "Polygon", "coordinates": [ [ [ 418980.0, 8395741.215932166203856 ], [ 419280.0, 8395741.215932166203856 ], [ 419280.0, 8395730.0 ], [ 419290.0, 8395730.0 ], [ 419290.0, 8395710.0 ], [ 419300.0, 8395710.0 ], [ 419300.0, 8395700.0 ], [ 419310.0, 8395700.0 ], [ 419310.0, 8395680.0 ], [ 419320.0, 8395680.0 ], [ 419320.0, 8395670.0 ], [ 419330.0, 8395670.0 ], [ 419330.0, 8395650.0 ], [ 419340.0, 8395650.0 ], [ 419340.0, 8395640.0 ], [ 419350.0, 8395640.0 ], [ 419350.0, 8395620.0 ], [ 419360.0, 8395620.0 ], [ 419360.0, 8395610.0 ], [ 419390.0, 8395610.0 ], [ 419390.0, 8395600.0 ], [ 419400.0, 8395600.0 ], [ 419400.0, 8395520.0 ], [ 419410.0, 8395520.0 ], [ 419410.0, 8395510.0 ], [ 419420.0, 8395510.0 ], [ 419420.0, 8395500.0 ], [ 419430.0, 8395500.0 ], [ 419430.0, 8395480.0 ], [ 419440.0, 8395480.0 ], [ 419440.0, 8395470.0 ], [ 419450.0, 8395470.0 ], [ 419450.0, 8395450.0 ], [ 419440.0, 8395450.0 ], [ 419440.0, 8395340.0 ], [ 419430.0, 8395340.0 ], [ 419430.0, 8395200.0 ], [ 419440.0, 8395200.0 ], [ 419440.0, 8395160.0 ], [ 419450.0, 8395160.0 ], [ 419450.0, 8395130.0 ], [ 419460.0, 8395130.0 ], [ 419460.0, 8395110.0 ], [ 419470.0, 8395110.0 ], [ 419470.0, 8395090.0 ], [ 419480.0, 8395090.0 ], [ 419480.0, 8395080.0 ], [ 419490.0, 8395080.0 ], [ 419490.0, 8395070.0 ], [ 419500.0, 8395070.0 ], [ 419500.0, 8395050.0 ], [ 419510.0, 8395050.0 ], [ 419510.0, 8395040.0 ], [ 419520.0, 8395040.0 ], [ 419520.0, 8395020.0 ], [ 419530.0, 8395020.0 ], [ 419530.0, 8395010.0 ], [ 419540.0, 8395010.0 ], [ 419540.0, 8394990.0 ], [ 419546.285279343428556, 8394990.0 ], [ 419480.0, 8394875.190528383478522 ], [ 418980.0, 8394875.190528383478522 ], [ 418730.0, 8395308.203230274841189 ], [ 418980.0, 8395741.215932166203856 ] ] ] } },
{ "type": "Feature", "properties": { "hex_id": 44 }, "geometry": { "type": "Polygon", "coordinates": [ [ [ 418980.0, 8395741.215932168066502 ], [ 418770.0, 8396104.946601755917072 ], [ 418770.0, 8396110.0 ], [ 418780.0, 8396110.0 ], [ 418780.0, 8396150.0 ], [ 418770.0, 8396150.0 ], [ 418770.0, 8396190.0 ], [ 418780.0, 8396190.0 ], [ 418780.0, 8396180.0 ], [ 418820.0, 8396180.0 ], [ 418820.0, 8396170.0 ], [ 418830.0, 8396170.0 ], [ 418830.0, 8396160.0 ], [ 418840.0, 8396160.0 ], [ 418840.0, 8396150.0 ], [ 418850.0, 8396150.0 ], [ 418850.0, 8396140.0 ], [ 418870.0, 8396140.0 ], [ 418870.0, 8396130.0 ], [ 418880.0, 8396130.0 ], [ 418880.0, 8396150.0 ], [ 418910.0, 8396150.0 ], [ 418910.0, 8396140.0 ], [ 418940.0, 8396140.0 ], [ 418940.0, 8396130.0 ], [ 418980.0, 8396130.0 ], [ 418980.0, 8396120.0 ], [ 419010.0, 8396120.0 ], [ 419010.0, 8396110.0 ], [ 419050.0, 8396110.0 ], [ 419050.0, 8396100.0 ], [ 419080.0, 8396100.0 ], [ 419080.0, 8396090.0 ], [ 419120.0, 8396090.0 ], [ 419120.0, 8396080.0 ], [ 419160.0, 8396080.0 ], [ 419160.0, 8396070.0 ], [ 419190.0, 8396070.0 ], [ 419190.0, 8396060.0 ], [ 419230.0, 8396060.0 ], [ 419230.0, 8396050.0 ], [ 419260.0, 8396050.0 ], [ 419260.0, 8395920.0 ], [ 419250.0, 8395920.0 ], [ 419250.0, 8395820.0 ], [ 419260.0, 8395820.0 ], [ 419260.0, 8395790.0 ], [ 419270.0, 8395790.0 ], [ 419270.0, 8395750.0 ], [ 419280.0, 8395750.0 ], [ 419280.0, 8395741.215932168066502 ], [ 418980.0, 8395741.215932168066502 ] ] ] } }
]
}
